{"type": "FeatureCollection", "features": [{"id": "0", "type": "Feature", "properties": {"STE_NAME21": "Australian Capital Territory"}, "geometry": {"type": "Polygon", "coordinates": [[[148.80501846295692, -35.36746224405793], [149.12095342496943, -35.12440293910884], [149.39479073033593, -35.30317587377435], [149.13846943377624, -35.42848762265144], [149.04904916493015, -35.920195938335524], [148.78844777409157, -35.697794344880826], [148.80501846295692, -35.36746224405793]]]}}, {"id": "1", "type": "Feature", "properties": {"STE_NAME21": "New South Wales"}, "geometry": {"type": "Polygon", "coordinates": [[[149.94308721178078, -37.0469622232074], [149.8736442164643, -37.09547421738948], [150.05193713413874, -37.26226022425375], [149.94401313976292, -37.27771622478347], [149.97619755281158, -37.505146559097], [148.10889407430176, -36.80085304610627], [148.21759002195236, -36.59835604362935], [148.03754817704203, -36.39012593765791], [147.99969713539252, -36.046190642344804], [147.70841984601384, -35.928531578254585], [147.5518792719005, -36.0040823163645], [147.39184543413356, -35.94762720343081], [147.31926350231993, -36.06111386851367], [147.12336301150393, -35.99448452289713], [146.9437106061908, -36.115976989910095], [146.61132495603303, -35.972621403815545], [146.185982216623, -36.04205724273442], [145.8100410628071, -35.99135417514508], [145.53570214727984, -35.80199174438325], [145.11423095302126, -35.820517915107466], [144.96825244188904, -35.865400845387406], [144.98164163830384, -36.07255940764563], [144.72711439507103, -36.11789980067386], [143.97010738852322, -35.50006487690532], [143.6204224150122, -35.38766960398943], [143.5708339997344, -35.20689154970583], [143.3946836689848, -35.192363838665365], [143.34788313283605, -34.79162234315259], [142.88682199466345, -34.679794904475564], [142.7914349010874, -34.54637560792732], [142.6393290245938, -34.78025832049972], [142.52422146440304, -34.759367573642685], [142.46797443975348, -34.564282069099924], [142.36770162817848, -34.530432943092826], [142.3965723098635, -34.33773628348528], [142.2359004371695, -34.306960324082944], [142.22796855808434, -34.18945080285585], [142.03777761452335, -34.099803791520664], [141.67745631954446, -34.10121139159189], [141.5109785760582, -34.21650735332082], [141.24181414936882, -34.06130124794688], [141.01945321375263, -34.05729724629159], [140.9992722830937, -28.99908688040498], [148.95809518385585, -28.999051081236935], [149.5033062965416, -28.57436212452197], [149.7039712665991, -28.633900142401927], [150.29007070976476, -28.53717519347355], [150.4421621775379, -28.66428170812195], [150.75126514534645, -28.634237235959194], [151.00992910287454, -28.740934260561914], [151.0444085866063, -28.84387876454388], [151.27417254860976, -28.937899286646587], [151.28047352799058, -29.10214428849572], [151.39412200542685, -29.178015299733246], [151.70637350655542, -28.87170582692318], [151.7769034876373, -28.958988334320946], [152.0107024670682, -28.9066718563548], [152.07604098424355, -28.708331861132525], [151.95535752142627, -28.519177848029678], [152.38797699140002, -28.367450888836586], [152.46345899649165, -28.25920789539425], [152.5795114734554, -28.339185407439896], [152.61424797835667, -28.269463910325637], [152.75095495112535, -28.363866924603474], [153.10766041192386, -28.35848146024192], [153.17667241826166, -28.24959046635226], [153.55217713776298, -28.164395983884955], [153.5443597479342, -28.169690503125587], [153.54761587570763, -28.18400450357126], [153.54234337706, -28.178097042984913], [153.50878202921172, -28.19000151964289], [153.493044947499, -28.21648851824097], [153.55310195809218, -28.237688474553657], [153.56520876103227, -28.204941535538122], [153.5486487567012, -28.175516483610583], [153.55007400709707, -28.1712774637234], [153.55642989656053, -28.170018504364798], [153.58630188173808, -28.258193508118143], [153.60885581218594, -28.84319052498971], [153.3460643930371, -29.29129367159532], [153.2727766984855, -29.916851478938668], [153.03171663975914, -30.49900446901071], [152.98850560376658, -30.73236446642522], [153.09071958552028, -30.921550468115395], [152.93784865946037, -31.476126566885167], [152.75456279278453, -31.845064521314658], [152.54381588432176, -32.03608074184657], [152.53979158922763, -32.44359330441615], [152.20504845904583, -32.70120740349256], [151.94450565780522, -32.67553642809331], [151.9433064793858, -32.73926337843666], [152.188192579878, -32.71186440193002], [152.11560746871533, -32.79286338546641], [151.78522435659613, -32.920227324567925], [151.81727851513068, -32.82410491694616], [151.68612721319118, -32.82295783441209], [151.76351455900473, -32.92444534252271], [151.78551956584502, -32.92551239463402], [151.79116757562102, -32.92142235514496], [151.7937513352594, -32.92147831539255], [151.79751152519816, -32.91810332572816], [151.80297032475096, -32.91586835623455], [151.80297324470726, -32.916190356237145], [151.6611254816867, -33.08381735389905], [151.64390351866916, -32.97483436148204], [151.6142574943857, -32.9625643985771], [151.61379235845112, -33.08212038938732], [151.55341461962288, -33.06094230350932], [151.50995936133847, -33.093065369625755], [151.56760018235437, -33.175318425669204], [151.57920930039677, -33.103278296256335], [151.59713156010312, -33.16157436837226], [151.6337943272267, -33.0706503312058], [151.6657544406332, -33.08690234436159], [151.57903042641667, -33.282214347513616], [151.50192450888514, -33.34391634065105], [151.58583042543117, -33.20807034763115], [151.56248551042796, -33.19498335532451], [151.44162054224543, -33.30704729469572], [151.50444844603808, -33.36249835102152], [151.4171554766966, -33.523284343922036], [151.34496746369302, -33.54696832729929], [151.36340584459313, -33.52085017884712], [151.34696645892697, -33.505774307195914], [151.34116545194772, -33.48929935653462], [151.37569852558065, -33.50056109985937], [151.38281920842113, -33.471880030326204], [151.3228416527369, -33.42781953437956], [151.29960363692445, -33.49583268268145], [151.3503993971245, -33.51562830758805], [151.25866749270998, -33.5706233493758], [151.23748364127607, -33.45373936656838], [151.1994503756714, -33.53611832359769], [151.1664389948561, -33.42669394974493], [151.07353968515955, -33.447578291250586], [151.15562543097863, -33.467406309025215], [151.10278353246912, -33.58776528495738], [151.17564034197457, -33.51398229121996], [151.19853557395774, -33.54996132361004], [151.2309283809198, -33.53844133655433], [151.2469393833385, -33.57832635833294], [151.1863175600726, -33.59210328276729], [151.149454606857, -33.65545030977741], [151.29311837767733, -33.57187030261082], [151.2698173896851, -33.65623630102323], [151.31204642229497, -33.66671832505431], [151.30467546754753, -33.63533032414186], [151.3321534352647, -33.62335133663527], [151.3158984604566, -33.60176830495768], [151.32284346246763, -33.5794283154516], [151.33532047031807, -33.58231933664306], [151.343026423573, -33.624495337664214], [151.31527345785767, -33.69637133556588], [151.26969857183366, -33.714968321425715], [151.301453412751, -33.82337832516297], [151.2611114292391, -33.81792432134567], [151.23078642962923, -33.77270731819157], [151.20437124342402, -33.77246851572216], [151.2688814369051, -33.82704332213706], [151.24670640652445, -33.85343533024712], [151.14416244792787, -33.802979300322], [151.05110837838325, -33.82422551182197], [151.18934243171972, -33.87582731504495], [151.26697642131447, -33.870638332264676], [151.28107341439005, -33.8328083333193], [151.26597038834163, -33.968017322852894], [151.0179545331011, -33.97451227980134], [151.231931406664, -34.016726320009326], [151.06113325486865, -34.064338304432646], [151.17176640592962, -34.08649030487937], [150.92802843036932, -34.31661129386994], [150.92191140745885, -34.493838294533184], [150.79693862887484, -34.54574219339145], [150.90446129613616, -34.5969554236358], [150.74954338431235, -34.85514728117448], [150.8337633320145, -35.074342300402286], [150.6794303420549, -35.02386926591638], [150.70195618526006, -35.12301691865082], [150.47802935638038, -35.29181126942717], [150.30653933950873, -35.68613323662124], [150.17726825723426, -35.70306270515192], [150.23538031039442, -35.83535024123733], [150.15029133615354, -35.89092622400098], [150.1485802754996, -36.26692322634939], [149.90506620628747, -36.91359422897998], [149.94308721178078, -37.0469622232074]], [[148.80491622332067, -35.36467782403063], [148.78844777409157, -35.697794344880826], [149.04904916493015, -35.920195938335524], [149.13846943377624, -35.42848762265144], [149.39479073033593, -35.30317587377435], [149.12095342496943, -35.12440293910884], [148.80491622332067, -35.36467782403063]]]}}, {"id": "2", "type": "Feature", "properties": {"STE_NAME21": "Northern Territory"}, "geometry": {"type": "MultiPolygon", "coordinates": [[[[129.6827714395971, -15.129752694638453], [129.49971545077383, -14.79009561189702], [129.5921258553101, -14.89099517274607], [129.57755483628657, -14.798285172048178], [129.80254962319876, -14.858003602897828], [129.9028388776514, -14.773203982529632], [129.76898947520684, -14.82801369260245], [129.74948935637147, -14.80968376242652], [129.77681923483163, -14.795363862380196], [129.7938090739181, -14.769044002225192], [129.80403907333033, -14.769404012251345], [129.8099690130052, -14.763304022220407], [129.81005898300748, -14.760304052198606], [129.67240946089436, -14.7634540019399], [129.58363379619792, -14.616225170724336], [129.77962375526428, -14.539912140511502], [129.52627967952395, -14.55227612018626], [129.36702357859787, -14.338086318502514], [129.47899119264858, -14.047915676446152], [129.5567212583259, -14.142145247215673], [129.59810615625506, -14.011046846305375], [129.74605400835097, -13.975125526287446], [129.81733069564245, -13.501746582945392], [129.89743929167457, -13.440396152684812], [130.00837807568465, -13.533324633686759], [130.19082375681006, -13.394195123285458], [130.23929673480902, -13.281950132641716], [130.1161842514649, -13.164125291300412], [130.12924275154054, -12.966564609876393], [130.33824871162358, -12.890102760139149], [130.35203728197374, -12.670323498557735], [130.46089395693218, -12.639161948836657], [130.62435379835009, -12.775091100722442], [130.6214619388992, -12.70519085018144], [130.68915166537113, -12.751480910921126], [130.7387702332457, -12.710529950913374], [130.58587196072259, -12.684430819827586], [130.5456710129212, -12.634290269234457], [130.64244987828465, -12.639409529806787], [130.5785090726477, -12.405338927691869], [130.7651569237514, -12.4373568490211], [130.7744077026152, -12.545577759893972], [130.72929808451588, -12.581578219885523], [130.72937816445432, -12.59071830995477], [130.73203821428902, -12.596918360017646], [130.8414775093853, -12.555307720398863], [130.89522860594883, -12.682458851717444], [130.8822979371018, -12.6061881810547], [130.9452980338829, -12.637848251728244], [130.96685785291714, -12.629768071820058], [130.85921697888384, -12.506577070148944], [130.9538573540823, -12.55511737116438], [130.94673671503088, -12.471036560479515], [130.81638642156193, -12.407116519118407], [131.05505590091647, -12.347775400334044], [131.0306151035807, -12.14642528862893], [131.22501420359163, -12.285025271192957], [131.2971345524114, -12.042595079955023], [131.334323409231, -12.211455421557941], [131.47230410224716, -12.28369792334711], [131.8792678043676, -12.214537116956528], [132.06972296460512, -12.303526059821532], [132.23820104861565, -12.16974686085549], [132.3894017408576, -12.236398853323273], [132.6289686421545, -12.086891135467443], [132.58045963867, -11.787522142463724], [132.6448506367456, -11.727995132915481], [132.49958863369977, -11.680402120513866], [132.59718262987894, -11.65418013166632], [132.5269766355225, -11.468718129250995], [132.23788565786617, -11.455969125351194], [132.11589365196068, -11.540446124506717], [131.94360669182683, -11.320269130810573], [131.76387568933123, -11.316793118835248], [131.88324368588843, -11.182115119078388], [131.9617036818536, -11.253202130498474], [131.9735436628114, -11.128986119676274], [132.11448865606351, -11.211830121956998], [132.1704576411486, -11.420657124244439], [132.23764165934585, -11.341675124465844], [132.1356276663019, -11.122361121520443], [132.28227265836088, -11.274874124512275], [132.2657316603216, -11.176177123540146], [132.34420665786104, -11.120130114109653], [132.37347366432545, -11.295042125844194], [132.45098765218316, -11.217876126274396], [132.66839364886613, -11.51623112161121], [132.89574762066258, -11.427036134301373], [132.9182686312253, -11.332244133910272], [133.15284162515434, -11.706942140581083], [133.53435358772177, -11.7609871376191], [133.5176915962778, -11.877037138226124], [133.91639958156864, -11.74337916473742], [133.83914657221658, -11.87696916426998], [134.1315625889456, -11.90004516033875], [134.1942615533898, -12.02957317267186], [134.16233956326212, -12.101045162565919], [134.1823905816189, -12.135510163258093], [134.24597256208497, -11.984570163410666], [134.49557454904385, -12.072652169551755], [134.74857655078512, -11.949119184364482], [134.85575452156573, -12.132172168357528], [135.2127935213144, -12.29598318847992], [135.16121851549215, -12.225533186609894], [135.34273552675236, -12.246642191432173], [135.2228014936556, -12.190008197889119], [135.36623153004913, -12.08523718075391], [135.56953951060245, -12.100640196276382], [135.65434648857018, -12.039296198088751], [135.91047749982542, -11.952537194537907], [135.65419450526122, -12.15665619902676], [135.70767648850455, -12.309809191726018], [136.04507448063666, -12.063069209298177], [135.92859047111867, -12.221137197217185], [136.06295845424853, -12.24913422131857], [136.008881485447, -12.290404200081674], [135.9665704637286, -12.41250621984505], [136.01648244901716, -12.493561211937003], [136.22023147008645, -12.478977227808995], [136.37913345000197, -12.250397220756224], [136.16715946218085, -12.16354021368714], [136.562326483841, -11.876736223384384], [136.44536945504004, -11.998297220743925], [136.53101546151487, -11.991355233337927], [136.64881543725326, -12.270125219297594], [136.7417704630062, -12.272261232276552], [136.6807364385735, -12.186306239630115], [136.7820834349813, -12.158596242648882], [136.9268044244107, -12.28067624835101], [136.87070644352005, -12.381769237336371], [136.9789204399557, -12.342455240572122], [136.77265543217405, -12.555569245568583], [136.79377342466884, -12.451870225408321], [136.72572045678754, -12.481826243463113], [136.66927298579765, -12.590551352544132], [136.74728041349746, -12.551017244715494], [136.76220344193106, -12.57733323540859], [136.60630643440416, -12.722528241619894], [136.62168843984662, -12.839477233051317], [136.55061243645088, -12.740064220012982], [136.46552943915404, -12.78061022769463], [136.66821243219098, -13.004275235858838], [136.4539644433297, -12.979208228940221], [136.5670634152772, -13.059152223106462], [136.4687684339824, -13.247129221558131], [136.33081442835157, -13.324154227945725], [136.3882624386178, -13.226367228911393], [136.33284142748548, -13.032308215658539], [136.18117242711108, -13.281658223105575], [136.14525245385482, -13.12055421074644], [136.04637746292437, -13.310233209365144], [136.01192244753588, -13.214360217594477], [135.91872346047558, -13.26988520535468], [135.87990545966377, -13.362128224985511], [135.97299340380232, -13.402315277974198], [135.85973398836052, -13.44022628503701], [135.87939630928585, -13.712025087767456], [136.08306473052713, -13.655443533204005], [135.90359816368962, -14.190502802274548], [135.7025407321337, -14.271353907248539], [135.54106242999575, -14.652703395841403], [135.38208391684634, -14.725723872162948], [135.41094369108714, -14.873123034090952], [135.4154936408996, -14.870583034191837], [135.43114351887866, -14.910692684924928], [135.44024347811558, -14.919322585235781], [135.45582331638678, -14.948952335886052], [135.47047321494458, -14.970212146446416], [135.48001311411147, -14.980272056781972], [136.2097604791535, -15.392864650817902], [136.3174995552186, -15.625975015931433], [136.55546588672902, -15.750384564308478], [136.72413496836194, -15.696331509263423], [136.64279560079493, -15.769113277230609], [136.70638578135933, -15.931214080560421], [136.95325460594464, -15.938320138704627], [136.97799383754088, -15.850939218832398], [137.37261264289236, -16.133334884603375], [137.7296792268179, -16.232237858205156], [137.9946539678389, -16.538296570524707], [137.99906130486545, -25.996849173538216], [129.00057905637536, -25.998591879552773], [129.0014933995453, -14.879594592583096], [129.1889276787194, -14.987159093226058], [129.15819921061384, -15.197587644764383], [129.30162722212512, -15.036518963576407], [129.228436666386, -14.83935863214235], [129.48248646161497, -14.941045752982141], [129.6039115542876, -15.107992584348459], [129.56359241656392, -15.179902424816538], [129.6827714395971, -15.129752694638453]]], [[[137.097722621645, -15.812037472549902], [136.91901356710983, -15.681949035522054], [137.0088623350949, -15.58671760775401], [137.097722621645, -15.812037472549902]]], [[[136.44261659694962, -14.123456837792116], [136.42258044797123, -13.815629194703583], [136.6314713980103, -13.789238251024143], [136.57504440415136, -13.691435238454135], [136.69462639935495, -13.651434251925734], [136.7268604512608, -13.843185514504158], [136.9052248447203, -13.764113579666144], [136.69880336333117, -14.122692245853175], [136.76298736740262, -14.196717238513946], [136.96319635777508, -14.165502254819659], [136.95073134361448, -14.304085255522965], [136.32470863931277, -14.24609746515569], [136.44261659694962, -14.123456837792116]]], [[[136.50238850123765, -11.412239217746386], [136.705862490774, -11.170139232160077], [136.76021146357937, -11.018436212656695], [136.68440745905616, -11.249336232124325], [136.50238850123765, -11.412239217746386]]], [[[136.19113428130387, -13.773562257347464], [136.10649841433428, -13.817378235189134], [136.19101540452138, -13.670635236519223], [136.29300442810805, -13.707990239882221], [136.24826740594432, -13.849849229669879], [136.19113428130387, -13.773562257347464]]], [[[135.56329031276078, -12.033076545565851], [135.59401451371068, -11.950618205734441], [135.92834450424803, -11.775560203620216], [135.7978224744099, -11.964221201454034], [135.56329031276078, -12.033076545565851]]], [[[132.59487564984812, -10.970153136326724], [132.63154365523437, -11.186834128527261], [132.5883316345565, -11.356564139234653], [132.4620956642008, -11.038685125034842], [132.59487564984812, -10.970153136326724]]], [[[130.37306274790592, -11.169523097385817], [130.81036170763616, -11.527370102435373], [130.70481772299348, -11.384960120714345], [130.89934972534877, -11.309304111363625], [131.0325467193723, -11.367234102734653], [131.14833544546306, -11.249861242714067], [131.20943670216212, -11.343825113912862], [131.27628371068985, -11.189739113285865], [131.54369368715282, -11.45291012768014], [131.46865169883904, -11.609403128173602], [131.38027370286315, -11.583696117181294], [130.95281870860026, -11.940328106510483], [130.4926340705293, -11.654914731601377], [130.37306274790592, -11.169523097385817]]], [[[130.62616103425796, -11.742591682965239], [130.60575972467115, -11.826991113488793], [130.02052875058044, -11.776352110645426], [130.07632873848667, -11.668890110011995], [130.30324273840608, -11.727570111282947], [130.19092172362954, -11.640336120189383], [130.19528574390628, -11.517223109282103], [130.2639447507962, -11.562010109880386], [130.2613247510526, -11.526573099603947], [130.1482727560376, -11.481661118847883], [130.33863973867065, -11.317995108354193], [130.46896572149308, -11.666717121573727], [130.62616103425796, -11.742591682965239]]]]}}, {"id": "3", "type": "Feature", "properties": {"STE_NAME21": "Queensland"}, "geometry": {"type": "MultiPolygon", "coordinates": [[[[137.99906130486545, -25.996849173538216], [137.9946539678389, -16.538296570524707], [138.3236234878828, -16.750444314899458], [139.0386845642545, -16.912429845350847], [139.23767808225423, -17.319767607148375], [140.00438456096595, -17.714561844707482], [140.38457937679212, -17.677869662379408], [140.82840424800773, -17.465327142391814], [140.9580287548242, -16.998127665060366], [141.2964920208611, -16.496196708226446], [141.4327779260014, -16.074747251829734], [141.373386968404, -15.916898487411844], [141.43468489921347, -15.657578978453145], [141.66584117114039, -15.030418665417418], [141.52561783922135, -14.487072763420887], [141.59903914592442, -14.116649444177787], [141.46720006663435, -13.864235435104533], [141.69539834815518, -13.270064452135056], [141.58317009858584, -12.99670705386163], [141.89375123667398, -12.59351357703148], [141.59192647218057, -12.558948060604568], [141.850448292565, -11.984438699493722], [141.90902787169935, -11.955448462408217], [141.91336223984283, -12.164339454428944], [142.0122434026302, -12.039097448731637], [141.94218308085485, -11.945498434119363], [142.11996909600225, -11.368530508879305], [142.1327939791884, -10.948431575970922], [142.31502464420063, -10.915139505773336], [142.53094291927394, -10.687529445941907], [142.60928161282644, -10.749009410924458], [142.48212309426097, -10.978359045694024], [142.58924292662937, -10.86813857081368], [142.78791634665, -11.080517494041256], [142.85636631837127, -11.845504524616535], [143.24407010470497, -11.968714548527059], [143.0787170700305, -12.159211520350034], [143.0796212288988, -12.340852001970472], [143.24737792921863, -12.379132042271566], [143.30545813601475, -12.55066078723226], [143.4384562762637, -12.61180087578377], [143.3535101022805, -12.896071543101982], [143.5442531168713, -12.843266554219365], [143.50215809099842, -13.124262554075734], [143.5974570774483, -13.422791572472539], [143.53130504943368, -13.75500955128086], [143.78356098446142, -14.405747572412992], [144.0324129662845, -14.482907598679814], [144.19537098259852, -14.261393597133477], [144.33833398212417, -14.306988616704341], [144.51621746253747, -14.166629197032481], [144.68267932734452, -14.551245971271165], [144.9096609109721, -14.613701656888919], [145.02345191202934, -14.795336666098555], [145.35196786294424, -14.952979679826734], [145.2338068457849, -15.140730683350803], [145.35710185902704, -15.277224692980631], [145.22855783278743, -15.462027695761844], [145.47689497334346, -16.076087838134466], [145.41011619892106, -16.459277166797637], [145.77922227985863, -16.940437896710623], [145.8488906707785, -16.871173711050815], [145.9576579620181, -16.896564949009875], [145.88941360392738, -17.057591575524917], [146.07320318603743, -17.394709951550897], [146.07697975721786, -17.504538732760285], [146.03271485950947, -17.512242079646068], [146.03044974938123, -17.515788749513817], [146.02782250686684, -17.550257319619387], [146.1490533712047, -17.648538799184262], [146.01619552328384, -18.245005734694566], [146.18938011321455, -18.47381483911855], [146.33788848863858, -18.52661388037133], [146.28984147267585, -18.891882919957034], [146.88257927606247, -19.303558807370933], [147.01627391650092, -19.182280786455554], [147.1261073882029, -19.42245782684946], [147.44101626519895, -19.42114790108861], [147.41434853649767, -19.3126138380994], [147.67135840267395, -19.828343462532402], [147.76459633490913, -19.837065909954088], [147.75234924732266, -19.706584907882892], [147.8235572317527, -19.709638893540507], [147.91784013707849, -19.908300932711054], [148.2597602852885, -19.975428950745624], [148.34202414290397, -20.153009978928694], [148.56288016405395, -20.066717996268686], [148.673158235712, -20.282314997192685], [148.76928938268262, -20.235946994771428], [148.93015031235493, -20.533774030716177], [148.85686725859458, -20.527879994537344], [148.8240280806964, -20.426089020937216], [148.75613709660533, -20.41890701522729], [148.66205326832306, -20.5857550288388], [148.84481226674362, -20.87575403646652], [149.0461202982172, -20.903002003578223], [149.01738913186858, -20.993430021920542], [149.22703897850354, -21.062780000237908], [149.17925221092395, -21.284670058046885], [149.2986699423793, -21.273279048109885], [149.29717195934995, -21.511299069981312], [149.39579525306536, -21.493089908262185], [149.44339999933757, -21.59334804318853], [149.48459912201955, -21.531698036213985], [149.4654229647761, -21.92566709786449], [149.75211016949513, -22.436371266953014], [149.81107748992832, -22.382054991649017], [149.9628364309162, -22.539443796274615], [149.99137650208235, -22.60181358930815], [150.01820636589122, -22.63962340198953], [150.0467560112207, -22.661053194689547], [149.91286514522423, -22.342674460240545], [150.04423493617222, -22.125450129999248], [150.1774303708567, -22.360482873768515], [150.54857173242888, -22.61708014918344], [150.56195262272414, -22.316750647884387], [150.64579694260962, -22.345489225722297], [150.62734326408625, -22.44166026485206], [150.66713594069134, -22.346529167669104], [150.7533312528642, -22.446279376351065], [150.72393779774066, -22.51858819427606], [150.67834284641847, -22.473219959747354], [150.6743078444999, -22.494719219560206], [150.65839318755351, -22.478620127979514], [150.64775329916858, -22.471900166957084], [150.64427338921658, -22.474270196660957], [150.70725969675405, -22.636183193739086], [150.7333089439619, -22.64138015615532], [150.73614761560265, -22.623558976265333], [150.73939462448584, -22.631475996627408], [150.7484035532442, -22.635882957485673], [150.7588592733175, -22.626692838362793], [150.75443084458652, -22.52375619709906], [150.78394799149154, -22.52914618983853], [150.83516480064515, -22.684194165816947], [150.7496788107032, -23.129357191708912], [150.87143257215703, -23.480867235758648], [150.7906457067281, -23.505957208568717], [150.95699877694878, -23.550289194196093], [150.92531663196183, -23.622760241879764], [151.0265575883179, -23.571999180789646], [151.04581078050236, -23.627848233029976], [151.0886558230925, -23.66023421726133], [151.12177128887305, -23.671390200422206], [151.1729570783852, -23.815896106366917], [151.32316763038807, -23.854749250693544], [151.4404287349091, -24.077259303523768], [151.4405076544024, -23.992020182829293], [151.54542392118663, -24.11326930371362], [151.57366332727688, -24.035708985743355], [151.68247170956573, -24.104098736617875], [151.6105626402192, -23.97923860876931], [151.71585106838904, -24.087248559651734], [151.76464463203519, -24.015216313703615], [152.04402864793448, -24.525037364681296], [152.46818058396437, -24.816073378325385], [152.50752787931773, -25.077518994326077], [152.63303817840486, -25.15176934729813], [152.55545473352467, -25.171655359808657], [152.54026515281282, -25.18999042846282], [152.54703637037474, -25.204987419251477], [152.91449931420868, -25.293328416410613], [152.92436323661545, -25.430776288515123], [152.82374229879667, -25.493990768993584], [152.84854598584758, -25.4982985814987], [152.93423710552239, -25.431851199510767], [152.95635077314978, -25.43363604173697], [152.86191931786337, -25.553424333279224], [152.936712268668, -25.815023422867], [153.0205072485691, -25.82954144137703], [152.99914516360187, -25.969010810362434], [153.04644333863445, -25.807994393805856], [153.1923520587327, -25.93308641951245], [153.06137316492888, -26.313154149381376], [153.15140016486822, -26.801637442359503], [153.04276808520075, -26.969446442764205], [153.14420864123267, -27.07554552381754], [153.02949808034634, -27.178948453097743], [153.11476706976052, -27.191348451770732], [153.0649574111891, -27.301363397631224], [153.16044541134332, -27.377916537855487], [153.10803403888707, -27.441592463076034], [153.0497866153058, -27.44017015720558], [153.00413018587855, -27.47444242289321], [152.99463186495515, -27.489857452062548], [153.02062106081385, -27.50055043475412], [153.0004590521843, -27.50686444278125], [152.9978749614446, -27.51493135258585], [153.00838184955197, -27.52097428368738], [152.97061311568578, -27.50454444977155], [152.96580905497476, -27.514289439367353], [152.9735511005777, -27.542564410366158], [152.96601305130156, -27.543263439616613], [152.95473601424032, -27.529579478379407], [152.93856917651408, -27.525345426728066], [152.9297160671857, -27.527582465860192], [152.92744704718484, -27.529531435648675], [152.9251860559421, -27.541342425515836], [152.9074930475937, -27.54337043376332], [152.90415204781397, -27.544482433438276], [152.90290404774015, -27.546139443326666], [152.9029190474899, -27.548116443343787], [152.9065880261762, -27.555416433767977], [152.89454302683433, -27.560513442604957], [152.89379302473986, -27.57781144266657], [152.8970420332754, -27.58666443306089], [152.90508104122796, -27.59603344393787], [152.90599402047306, -27.601246444070217], [152.88847117368704, -27.59075167223721], [152.89609003145256, -27.60196844308652], [152.90670401038545, -27.601332784141835], [152.90588295112627, -27.59615278401894], [152.894626024496, -27.5790354327594], [152.90725232608216, -27.555594293835753], [152.90428662774283, -27.544932923455285], [152.97415152025303, -27.544626480442574], [152.97250129530568, -27.505949549971795], [153.0095990491638, -27.523012453825604], [153.02286702066007, -27.49985644497406], [153.00460004554157, -27.476715442958305], [153.11425417833223, -27.440713493695565], [153.20219126006333, -27.35288081187312], [153.29315738586155, -27.701643243840696], [153.34829946073057, -27.69514689938889], [153.412281937927, -27.74091032626179], [153.42639371627413, -27.741881217707885], [153.43928945566847, -27.735747198974693], [153.34318633365936, -27.9100592005614], [153.40056210226774, -27.87231089610253], [153.55217713776298, -28.164395983884955], [153.17667241826166, -28.24959046635226], [153.10766041192386, -28.35848146024192], [152.75095495112535, -28.363866924603474], [152.61424797835667, -28.269463910325637], [152.5795114734554, -28.339185407439896], [152.46345899649165, -28.25920789539425], [152.38797699140002, -28.367450888836586], [151.95535752142627, -28.519177848029678], [152.07604098424355, -28.708331861132525], [152.0107024670682, -28.9066718563548], [151.7769034876373, -28.958988334320946], [151.70637350655542, -28.87170582692318], [151.39412200542685, -29.178015299733246], [151.28047352799058, -29.10214428849572], [151.27417254860976, -28.937899286646587], [151.0444085866063, -28.84387876454388], [151.00992910287454, -28.740934260561914], [150.75126514534645, -28.634237235959194], [150.4421621775379, -28.66428170812195], [150.29007070976476, -28.53717519347355], [149.7039712665991, -28.633900142401927], [149.5033062965416, -28.57436212452197], [148.95809518385585, -28.999051081236935], [140.9992722830937, -28.99908688040498], [140.9993959770612, -25.99637801830771], [137.99906130486545, -25.996849173538216]]], [[[153.41887580724472, -27.740664276931877], [153.43956897963972, -27.393159166295145], [153.45480586867907, -27.387987467808813], [153.54671354287356, -27.434814587576756], [153.41887580724472, -27.740664276931877]]], [[[153.36708071785134, -27.075118496385535], [153.46821568326294, -27.027770896314983], [153.42834563461713, -27.363600784916287], [153.3655075219916, -27.20123217722854], [153.36708071785134, -27.075118496385535]]], [[[152.9425113860147, -25.58584640158945], [152.99230745547476, -25.220692373602404], [153.22921830188915, -24.980936445488897], [153.12149052321186, -24.806834413191424], [153.2646283030376, -24.697076436742414], [153.36034435629065, -25.006550468991588], [153.06030910855662, -25.797411405112978], [152.9425113860147, -25.58584640158945]]], [[[151.31517063158643, -23.759986249163536], [151.12975051838634, -23.66922827114443], [151.04767772087442, -23.622880233161496], [151.03254763795243, -23.570389271329596], [150.97690271161937, -23.49063021553613], [151.01710870216925, -23.452250208926703], [151.18339555753332, -23.541299195068834], [151.23308457936778, -23.48375924921724], [151.23924453833672, -23.488129279827447], [151.31517063158643, -23.759986249163536]]], [[[146.23418719565706, -18.278485790711734], [146.223486823091, -18.194216309219108], [146.35842697590496, -18.418314420954015], [146.30522862355684, -18.493694167708078], [146.0705894693557, -18.247446698622586], [146.23418719565706, -18.278485790711734]]], [[[142.32599643818511, -10.135544449650725], [142.21599631618898, -10.2379194444298], [142.21984543220043, -10.128845483699958], [142.32599643818511, -10.135544449650725]]], [[[142.209111405641, -10.606502447231446], [142.27743133748217, -10.706469431880725], [142.15006118887717, -10.76486044533965], [142.11047231612653, -10.661770482275756], [142.209111405641, -10.606502447231446]]], [[[139.18533014599578, -16.667713359613373], [139.3070941477814, -16.46214336319606], [139.55092011579356, -16.39079836332199], [139.70161550171898, -16.48626709084594], [139.594123115197, -16.555328376588246], [139.56658671081192, -16.474487894701603], [139.546636872738, -16.460518003700642], [139.45126897901883, -16.666248061159596], [139.31306074488225, -16.730218695635088], [139.18533014599578, -16.667713359613373]]]]}}, {"id": "4", "type": "Feature", "properties": {"STE_NAME21": "South Australia"}, "geometry": {"type": "MultiPolygon", "coordinates": [[[[133.9519538729486, -32.39887151492526], [133.60913611217617, -32.08506172572152], [133.55346525791154, -32.169568485126916], [133.39511847173597, -32.14156447182006], [133.41176048833833, -32.177738482370955], [133.46431705082995, -32.172144083367044], [133.4918119561795, -32.19560201405841], [133.48773705648597, -32.20609408404335], [133.1257645992564, -32.20876962716001], [132.74489961086456, -31.949054828887036], [132.20062230807258, -32.027266680947264], [131.75858532752133, -31.720246243142117], [131.14864512852216, -31.463640114796632], [130.80614067560984, -31.605616292570655], [129.00192754386302, -31.686990625022766], [129.00184693623308, -25.998591869552808], [140.9993959770612, -25.99637801830771], [140.96580261795776, -38.0559849485865], [140.66244886176585, -38.0614606130875], [140.39617229063674, -37.91980862892815], [140.11880971003495, -37.52863052303737], [139.84075587424454, -37.3221765385394], [139.67005543040293, -36.95820313836504], [139.85008099910638, -36.824895565966465], [139.82143509342646, -36.5568985129807], [139.59392201186876, -36.13273849979548], [139.30008398188428, -35.824547514558155], [138.7382802945278, -35.51593947817886], [138.52236709201568, -35.64295449991995], [138.09617323332125, -35.625207462527975], [138.44105139341457, -35.349980464746416], [138.47800468197778, -34.78292617271509], [138.49712166482706, -34.85053799392961], [138.56620023533128, -34.8253804666335], [138.1023134890622, -34.13886943345849], [137.88759043177663, -34.50734840738911], [137.7586682880621, -35.11472942623323], [137.42284739333985, -35.09808139354204], [136.8830076504535, -35.30033243554784], [136.8219344032398, -35.2452663931111], [137.0136214102452, -34.892965437580116], [137.44876560937232, -34.91030441333132], [137.50944756555603, -34.61794138375131], [137.48319637937615, -34.439261401657724], [137.4151563690254, -34.459579449278664], [137.50030644353646, -34.311986381489895], [137.44986365087533, -34.13550438851243], [137.60036558138464, -33.8767804124588], [137.977470481015, -33.55882051483861], [137.81113947226206, -33.2662403765221], [138.0544155540761, -33.115082424981246], [137.76111751428, -32.433207429184684], [137.78651874033122, -32.999901683854695], [137.641425644298, -32.955304508071755], [137.4519866133896, -33.130687832168434], [137.21331359220272, -33.661068506912514], [136.59269155600103, -33.899548377021866], [136.1122522497559, -34.359370234436795], [136.09218089461797, -34.54272025494622], [136.05633360319825, -34.4790061034406], [135.93231779068574, -34.52850760994098], [135.89141664731787, -34.751433390070396], [135.78573905174238, -34.80931636725006], [136.0065387595478, -34.735925263487346], [135.95447044573731, -35.00633828354668], [135.79209760845282, -34.860942227755324], [135.61883435280504, -34.94445213315564], [135.25243760798858, -34.55185683038192], [135.1092049494065, -34.58822008670317], [135.2063272802303, -34.42929345836718], [135.3539074130241, -34.52204933301545], [135.36576428621922, -34.64207742408135], [135.51676808328384, -34.612953898183314], [135.40509332548228, -34.50722125436159], [135.42225090886217, -34.60143981542266], [135.3892431643975, -34.595051424453054], [135.25355264049102, -33.983814156919756], [134.8302544397335, -33.62630403345211], [134.84507439441444, -33.43647597265333], [134.65830163013823, -33.23357016666079], [134.70215571557944, -33.17465680738929], [134.55835855779918, -33.161332973742255], [134.64076105458582, -33.18270523590715], [134.6308462938957, -33.245149396050735], [134.3688931759773, -33.175884979271714], [134.3584822492417, -33.12532684871076], [134.27554875507593, -33.024769466139986], [134.328375151329, -33.19946291846271], [134.14220887516632, -33.024318283073384], [134.2037289876715, -32.969610364136564], [134.0605384911249, -32.907920300509666], [134.13850606160906, -32.83970141183821], [134.0603307769626, -32.722484619347185], [134.21557062155838, -32.79418045331258], [134.27198523986573, -32.587152353316824], [134.05838051601523, -32.44082328753689], [133.84900848382108, -32.54171212359593], [133.86708032542109, -32.398797123087206], [133.9519538729486, -32.39887151492526]]], [[[137.92615534583913, -35.71952943642691], [138.1342702339612, -35.8435834653843], [137.74110422880236, -35.853101410109936], [137.46093822304965, -36.07494644092891], [137.20949733082108, -35.97397445114855], [136.70524363075742, -36.06405037410901], [136.53294942915932, -35.876543377220955], [136.5874433864527, -35.74884337825851], [137.32133745378044, -35.57809739278318], [137.63341423309717, -35.564418464257535], [137.5779223631714, -35.72565743315978], [137.78034129972914, -35.72391846082054], [137.80345944395333, -35.75759142191396], [137.746085170977, -35.800932439981366], [137.75462831712898, -35.84307648056529], [137.92615534583913, -35.71952943642691]]]]}}, {"id": "5", "type": "Feature", "properties": {"STE_NAME21": "Tasmania"}, "geometry": {"type": "MultiPolygon", "coordinates": [[[[148.02134510370806, -40.41610747136539], [148.32979467346294, -40.290749425758236], [148.48189161474482, -40.43491710914135], [148.35056022118675, -40.492821768654096], [148.02134510370806, -40.41610747136539]]], [[[146.00377464429218, -43.33533132264804], [145.9351950536825, -43.15186335669189], [145.93346295349417, -43.155944266587994], [145.9262432549149, -43.15665141606835], [145.92047698548825, -43.161369285675555], [145.91947235432343, -43.17154391565686], [145.92168425345628, -43.17451780583294], [145.92838003158917, -43.17791497633628], [145.92572520141604, -43.183317706172545], [145.92710717030212, -43.18939963630505], [145.9188661921639, -43.188448745702765], [145.91390617273575, -43.19193176536195], [145.9137202129506, -43.19063278534159], [145.91595620273324, -43.18876376549363], [145.91599719285142, -43.187826785491616], [145.90865324450752, -43.18700088495533], [145.91580520283225, -43.18826678548005], [145.9100411932589, -43.1940738050934], [145.92068016955662, -43.204890605921534], [145.9136501305513, -43.208470655431235], [145.9139271292272, -43.21781957550092], [145.92846809245665, -43.24517724669975], [145.87180185257552, -43.25865963266975], [145.86249370259728, -43.273013602073306], [145.92663794533502, -43.30047383686], [145.83917447193764, -43.3142914406085], [145.2629528335495, -42.62161008602669], [145.1771149054645, -42.19307171772704], [145.45328429219717, -42.40441937820184], [145.4466449093186, -42.43742863791306], [145.47391466232833, -42.52582977031692], [145.4580329073227, -42.434775418701825], [145.4919536619771, -42.422243711029246], [145.53106198043642, -42.449519723945215], [145.6081556941631, -42.45303224943852], [145.64822607818905, -42.43576252219945], [145.67098811701274, -42.562350154511385], [145.71817858366987, -42.590021818036355], [145.741364218748, -42.59112548970389], [145.67327204215016, -42.44271680402502], [145.64578809888428, -42.434258582017385], [145.62577146166183, -42.4444669306462], [145.6129193456097, -42.434353189676], [145.52453198255327, -42.44350413344996], [145.5576192769368, -42.35701520532476], [145.3460547193252, -42.20677666958442], [145.3562974188491, -42.19408727023309], [145.38457845261632, -42.197843212238595], [145.38800741205222, -42.19679015247373], [145.39119933179344, -42.193715062681186], [145.39684139029703, -42.19645510309271], [145.41122439712206, -42.19840505411486], [145.42042637542406, -42.19703396475491], [145.4237011556798, -42.18979177494579], [145.43242819364036, -42.191865785571714], [145.43402806371913, -42.18869268566706], [145.44900637926196, -42.19975585678324], [145.46982819536086, -42.19713066823783], [145.4707612152561, -42.19646464830006], [145.47142306556515, -42.192989578327754], [145.46817292682493, -42.18829850807262], [145.47038088655512, -42.18689447822079], [145.47151380652056, -42.18536043829236], [145.4773598252014, -42.18638240871074], [145.48318668431358, -42.18405734910958], [145.48522079357227, -42.18662337926735], [145.48702882316883, -42.186903369396646], [145.4923906723791, -42.18455229976269], [145.4921755030345, -42.17976521972125], [145.4981584020643, -42.17784117013367], [145.49995836189467, -42.17630613025252], [145.30782861442685, -42.14889309659134], [145.22314168286326, -42.21869192106561], [145.26758438846468, -42.02277289308803], [144.911225291173, -41.69121534665801], [145.0052575713011, -41.61780865269007], [145.0347280653457, -41.618382794718926], [145.05107484065473, -41.630048625908955], [145.05405477000477, -41.63049559611667], [145.0590166893847, -41.62746357644161], [145.06209812625838, -41.64796971676797], [145.08123715131313, -41.65710272813831], [145.1037808269565, -41.655881639687806], [145.10405840839306, -41.643731539639404], [145.0505794342702, -41.601289875714826], [144.97474941606595, -41.62872087065748], [144.9182495026409, -41.66756385700661], [144.74589258663858, -41.42147784392205], [144.65934063680612, -41.057354846041136], [144.7752155509117, -41.08427980401203], [144.77452545269765, -41.07032079388645], [144.77982572154409, -41.07128982425086], [144.7823637116966, -41.065793804391724], [144.78951946984859, -41.06955985489787], [144.79159050952643, -41.06885182503423], [144.79173454004152, -41.064260845018055], [144.7905695706059, -41.06141979492303], [144.7950807499862, -41.05918681521621], [144.79541155050129, -41.05428586521093], [144.80077376832932, -41.06376088562808], [144.79818572860043, -41.06575483546384], [144.79754672861358, -41.066701805425865], [144.79073370756765, -41.08681889507764], [144.79286851688954, -41.08900984523472], [144.79912750560197, -41.08951582566193], [144.79117075754718, -41.086267815104165], [144.79546665744067, -41.080052875360266], [144.796339638214, -41.07207579537439], [144.8011056982352, -41.064006855651975], [144.8006254285839, -41.06185586560725], [144.79775371989027, -41.055571875377], [144.79653476027795, -41.05431385528724], [144.7938725608406, -41.05396581510478], [144.7900655806772, -41.06165182489019], [144.7911775896281, -41.06867686500525], [144.78236769172918, -41.065511834390406], [144.77417873284676, -41.069634813859096], [144.77234457262855, -41.0745218337625], [144.68247057461335, -41.03742183748485], [144.65982462719072, -41.053268836050606], [144.60734563268096, -41.008768822276124], [144.71319165019943, -40.85329182851155], [144.69240368636437, -40.66342083602798], [145.09138001737114, -40.847687544281385], [145.2589945199173, -40.805746515664204], [145.26045482089262, -40.71233485523146], [145.28764200890538, -40.850927587920104], [145.51160399518204, -40.85355919366977], [146.119661323795, -41.118934928936305], [146.16743974093347, -41.1466030925956], [146.12077142887088, -41.15569290922664], [146.14463118347308, -41.16147794100727], [146.1421969930521, -41.168459640868534], [146.1457410022496, -41.16932220113321], [146.1488575108363, -41.17559078139731], [146.15191351006766, -41.176929751629], [146.35686517247447, -41.158465376638226], [146.34774023660557, -41.2173389862965], [146.3885669759101, -41.23822855944489], [146.3623389259223, -41.20067399728434], [146.36970024538053, -41.19379497779145], [146.3651185883727, -41.17765542735966], [146.36892732811077, -41.17395700762124], [146.3683293787233, -41.170140987555136], [146.36888830878794, -41.16880532758902], [146.36981938878128, -41.167459987650446], [146.53189932362932, -41.118415579452666], [146.56517255973532, -41.25101684270125], [146.60680007050684, -41.25935152587456], [146.60959116326615, -41.15843705550996], [146.56671221091216, -41.1637534723201], [146.56445581362217, -41.14645841205226], [146.76838581293916, -41.07882805704521], [146.7706442010385, -41.16526147771027], [146.9231554407974, -41.16975900934913], [146.8975098513946, -41.202539427576774], [146.9706351628146, -41.309207293778464], [147.12123718512413, -41.44362639613164], [147.17326876615368, -41.43467098010651], [146.97817066140308, -41.308766904353696], [146.96542556986282, -41.19004651270033], [146.78660639268304, -41.054110518285995], [147.15789389394342, -41.03138732661459], [147.27984862258188, -40.94167904556766], [147.34562285024154, -40.93946227068668], [147.35543550253163, -40.982267201700346], [147.38427112723343, -40.980432893946265], [147.3989653605732, -41.00851280525905], [147.41212035729376, -41.01397357632178], [147.4257120446784, -41.01395853738799], [147.43039294394242, -41.012749507748445], [147.42983490445005, -41.009824507687796], [147.43211691382118, -41.011209477874914], [147.4345458432609, -41.011886468069505], [147.669690064377, -40.82101417554035], [147.75196309107326, -40.8759446624093], [147.75232896211153, -40.867941652392176], [147.7564769717117, -40.865103582706745], [147.8220277761552, -40.88691599807313], [147.9041601717494, -40.877656344609534], [147.93960259430517, -40.73913345665751], [148.22283628541388, -40.84609090025249], [148.349896539943, -40.99511938152733], [148.24950195117123, -41.0510845336189], [148.33882893437226, -41.25740466212893], [148.2357418549093, -41.32267069405469], [148.3589505370111, -41.28146016392089], [148.26723449873828, -41.46168507742513], [148.22763460079062, -41.431599414014435], [148.22893060870544, -41.44430133419279], [148.22406279008587, -41.4412994837779], [148.22271579036916, -41.44115252366701], [148.2210428504299, -41.44298755354081], [148.2218408097758, -41.44644451362569], [148.20717424298564, -41.4439799324139], [148.20235839333972, -41.44802506204385], [148.20104443370172, -41.447288101932415], [148.20493730349523, -41.44346502222836], [148.2054342437584, -41.44096900225469], [148.20247435440987, -41.44044508201012], [148.2008653947074, -41.440553121879425], [148.19788648502896, -41.442344191646534], [148.20154637348352, -41.44812407197816], [148.219706910123, -41.446916563454074], [148.21651999058813, -41.4479916531999], [148.21622302016664, -41.45131366319458], [148.23239748823198, -41.44290822446819], [148.24205622284128, -41.46721082539638], [148.26648150881644, -41.46215808736617], [148.3166575526008, -41.57536498212354], [148.2644834086034, -41.80999801917419], [148.3557252639553, -42.19330283880976], [148.25420581614674, -42.24796552078424], [148.30100478428855, -42.12988179396133], [148.2215723390989, -42.06901554711818], [148.15682379154757, -42.07203748185279], [148.239299297838, -41.985626508100566], [148.0640230706195, -42.068047454289015], [148.23520260213132, -42.0978881683936], [148.12393729511265, -42.092412509290064], [148.09735434968744, -42.09736736715742], [148.0729977923481, -42.112388565264304], [148.07222279267657, -42.111200585194815], [148.06186292446148, -42.113133674365486], [148.06147091450637, -42.113361684334976], [148.0610209444453, -42.11439366430426], [148.06154796418699, -42.115440654352824], [148.06066094427368, -42.11605865428436], [148.0549080356133, -42.11475075381075], [148.04667111672356, -42.118404763163724], [147.9311349969759, -42.343468055080194], [148.0268938868056, -42.349494552845655], [148.01048788640637, -42.51033908240575], [147.85075628169798, -42.55860479980352], [147.9629971425013, -42.669529309442794], [147.88406091253668, -42.845558854045855], [147.66912047839267, -42.901893797167666], [147.5941876214275, -42.781559490567155], [147.4474784951998, -42.75624409885166], [147.61338802806694, -42.84597253243891], [147.5036317479703, -42.86427712385975], [147.55405963981792, -42.98569978849839], [147.52137506142847, -43.020818616106155], [147.41881139833708, -43.05047955819221], [147.48363758550045, -42.90948740252896], [147.4089346966499, -42.938796116814316], [147.2626016168785, -42.73018501424366], [147.25673705423918, -42.75699910393282], [147.19899589062726, -42.72530642927198], [147.11654660098932, -42.771422613136615], [147.2083452964526, -42.7410955000837], [147.32211678000172, -42.832076179439085], [147.3451536038118, -43.04911401241262], [147.27232273372746, -43.015930816547986], [147.2600658553882, -43.22869676673529], [147.16775415674408, -43.28337343985524], [147.0947488185679, -43.1688866235956], [146.98441379865514, -43.18941945521083], [147.0562657351427, -43.039676329934025], [147.0340457038763, -43.010878308068015], [147.02325484604475, -43.01137754724044], [147.00703932895755, -43.014553026010795], [147.00166783967148, -43.01736499561316], [146.94997429951363, -43.163826972432524], [147.10013816991903, -43.29020450466], [146.97169948149232, -43.327420714971204], [147.05931047938964, -43.35304985184459], [147.01762882507333, -43.443441939115424], [146.905878731904, -43.42078592042599], [147.00179866316856, -43.479639238090186], [146.87092835786734, -43.6386244989065], [146.70537921382243, -43.633359606299], [146.559393788792, -43.464870494410285], [146.5960784598732, -43.543472937581235], [146.2160123786517, -43.48555183898428], [146.031124276143, -43.570939555881736], [145.92147172543278, -43.38128329691259], [146.08619239596243, -43.342021828697455], [146.13054587474502, -43.35545073201639], [146.1267040230446, -43.37369380183118], [146.14006203567857, -43.40662065298468], [146.1517919219611, -43.415559483892615], [146.1664155384253, -43.418739064983306], [146.23195212769556, -43.32386331930484], [146.00377464429218, -43.33533132264804]]], [[[147.76951563552473, -39.866372127878], [147.84798351666362, -39.7506569434629], [147.96344401869393, -39.727056632601474], [148.2911399059515, -39.96510536065546], [148.22328592690218, -40.121032526032764], [148.28765684056316, -40.08077120105858], [148.3341724540653, -40.20910450563478], [148.04611479209103, -40.24949342238787], [148.007023939175, -40.1053557783735], [147.85902155778797, -40.02337932597387], [147.88001687963907, -39.907298006967785], [147.76951563552473, -39.866372127878]]], [[[147.88501820667594, -43.017945505057405], [147.80288981213846, -42.89326701779374], [147.91992701556669, -42.84294415691711], [147.9988662286752, -42.9145525236752], [147.9263962077229, -43.02068873840197], [148.00733276018943, -43.22520754603713], [147.86333712772557, -43.10784340380062], [147.87462068062, -43.2063510952369], [147.78561971440112, -43.23796007827104], [147.6184509931822, -43.00832002371946], [147.6788829415758, -42.93453180812097], [147.77383371414783, -43.05492508634402], [147.88501820667594, -43.017945505057405]]], [[[147.30125606550047, -43.16892635962654], [147.35735682916504, -43.06364911344566], [147.43319031929474, -43.22834839027672], [147.32229041137208, -43.304021891991624], [147.3272121919599, -43.49709144340301], [147.2272634654245, -43.41255714516282], [147.18284216361815, -43.4888502421176], [147.13751432252263, -43.49336687862928], [147.09715096283114, -43.41235452507919], [147.17988230871262, -43.45828502172599], [147.17910137430542, -43.35254218110362], [147.38328074285366, -43.20689776624514], [147.30125606550047, -43.16892635962654]]], [[[143.85368293800926, -39.75069689571861], [143.94795301874714, -39.579402750755875], [144.10976393873725, -39.670180451740094], [144.1280184299942, -39.993230114810736], [143.92565387036723, -40.15796478269078], [143.85368293800926, -39.75069689571861]]]]}}, {"id": "6", "type": "Feature", "properties": {"STE_NAME21": "Victoria"}, "geometry": {"type": "MultiPolygon", "coordinates": [[[[144.33229224276548, -38.32324479823407], [143.51134605472296, -38.857679708827945], [142.3725240401402, -38.34946927738471], [142.1458063770208, -38.39147353466174], [141.7420209320569, -38.25309606125623], [141.6016274319857, -38.3131716839236], [141.6264235093198, -38.40633066583098], [141.37432531655406, -38.38674341208192], [141.2952861350697, -38.22062713687419], [140.96580261795776, -38.0559849485865], [140.963688948009, -33.98063640290455], [141.5100772562002, -34.216465993271974], [141.7296981323627, -34.09088281438099], [142.1658679106532, -34.15225294908567], [142.2359004371695, -34.306960324082944], [142.39680485979872, -34.338082403500955], [142.36770162817848, -34.530432943092826], [142.55675107794346, -34.77536034564093], [142.69896723002313, -34.725124543641826], [142.7914349010874, -34.54637560792732], [142.88682199466345, -34.679794904475564], [143.34788313283605, -34.79162234315259], [143.3946836689848, -35.192363838665365], [143.5708339997344, -35.20689154970583], [143.6204224150122, -35.38766960398943], [143.97010738852322, -35.50006487690532], [144.72711439507103, -36.11789980067386], [144.98191468828608, -36.072302597662635], [144.92361276638889, -35.98875463314363], [144.99226912936558, -35.852325516943615], [145.53540374732998, -35.80197006436204], [145.81137280255675, -35.99168240524276], [146.36868993619882, -36.050849636247875], [146.50259108509997, -35.95822156558973], [146.9437106061908, -36.115976989910095], [147.12336301150393, -35.99448452289713], [147.31995448222577, -36.060973848566576], [147.40463711258488, -35.94348211440378], [147.91234813552245, -35.995185374980906], [148.03773208773018, -36.14078454603742], [148.03758862702477, -36.39021244766173], [148.217569301972, -36.598226433626806], [148.10889407430176, -36.80085304610627], [149.97619755281158, -37.505146559097], [149.48496319754406, -37.7754282977828], [148.28962059512807, -37.81097527729626], [147.78822180220774, -37.95530925766773], [146.8831443646182, -38.634620981267965], [146.21206496669697, -38.69284143139679], [146.29262123683276, -38.90453793861925], [146.47864163722224, -38.79176742173463], [146.42481753545067, -39.1309811797858], [146.12686360508332, -38.83359739600806], [145.92120255295941, -38.909596911512565], [145.76555284938584, -38.66673870883208], [145.60670155635307, -38.67876883757277], [145.37201763452725, -38.536283900151176], [145.41638690132524, -38.40698188247314], [145.54893889189626, -38.371674881601585], [145.48899390819457, -38.233400866517364], [145.25477900056825, -38.223048880049284], [145.23449181324878, -38.40967546978289], [144.93741557630878, -38.49706929985357], [144.65191374812534, -38.30406347935261], [144.92317979513854, -38.34924279798038], [145.1176361634631, -38.14409176006264], [144.92691843009555, -37.840021695102365], [144.36161191065077, -38.105122878832], [144.69222866087537, -38.119953330933384], [144.6722519487189, -38.265254780480895], [144.33229224276548, -38.32324479823407]]], [[[145.35255750115445, -38.42003538807866], [145.29813269633254, -38.28194289343062], [145.50341585203594, -38.35327988827137], [145.35255750115445, -38.42003538807866]]]]}}, {"id": "7", "type": "Feature", "properties": {"STE_NAME21": "Western Australia"}, "geometry": {"type": "MultiPolygon", "coordinates": [[[[114.00419339187027, -25.618505678195202], [113.70689962355371, -24.850693313726918], [113.61754380346962, -24.858631469600716], [113.62325250402552, -24.74602053869441], [113.40696872558279, -24.48416295172265], [113.39017556667629, -24.223981731608895], [113.52699674842601, -23.783336010442387], [113.77812940025872, -23.478042102516312], [113.82619518594258, -22.9560026468549], [113.65409223344517, -22.57875981624876], [113.99509456958957, -21.875449760611414], [114.19102391759273, -21.814567247777582], [114.08027587246357, -22.154121656532507], [114.11582809226188, -22.331142705141158], [114.17847803461754, -22.30536084102482], [114.12522006470812, -22.511636005437666], [114.28237973445275, -22.4337730850868], [114.3403305651031, -22.51629339184995], [114.64808618883733, -21.844503659319972], [115.50826936135617, -21.539523576262038], [115.65255591391468, -21.31564056675288], [115.84439621309708, -21.252910495467336], [115.91816232550191, -21.078737450374046], [116.14615207166017, -21.0127133272673], [116.20459994542998, -20.833740563075516], [116.24135113496796, -20.876560051276957], [116.29950987074841, -20.888629838144603], [116.49487215173646, -20.85096742730694], [116.52591901310393, -20.752847485102013], [116.68476432946923, -20.750445046578346], [116.80874783577327, -20.529252508805044], [116.82820271480178, -20.708704518757333], [117.18235881801775, -20.59179047973488], [117.17195216518155, -20.70057916086527], [117.38177152214674, -20.784349140678522], [117.80974083961009, -20.674156448925206], [118.18157619020175, -20.336399889278095], [118.196167642539, -20.403740448973505], [118.85484348184197, -20.290634058350506], [119.09971906546768, -19.959309645757028], [119.56934865269805, -20.080333386680476], [121.11393137460995, -19.538557274979254], [121.50398846765076, -19.10614830915695], [121.65319548637824, -18.835915282614557], [121.61815450441323, -18.70629529294994], [121.79246541949097, -18.65818426704415], [121.72939451135504, -18.57566425854608], [121.8152231605487, -18.451124235033443], [122.3702754282788, -18.116431225973198], [122.3780784336439, -17.989800234943914], [122.17534032784222, -17.973991030887234], [122.17321538458934, -17.26357826646539], [122.48023021175098, -16.89457321499813], [122.50796138174633, -16.95435328457571], [122.52758137020786, -16.947663223965908], [122.55401112887378, -16.962383263298808], [122.57235131742182, -16.955663232729364], [122.60211107588545, -16.97128328197815], [122.6121701850169, -16.96524319165266], [122.57943935096165, -16.76212228128703], [122.84557616404217, -16.792017214004343], [122.74180725772744, -16.683389196184013], [122.92530317692321, -16.389437219224348], [123.03890225865058, -16.35919622596395], [123.07669220850563, -16.44032519548299], [122.95443404057183, -16.580126239666516], [123.13884222145016, -16.688463195450055], [123.14911303743918, -16.924704206710523], [123.58035917560933, -17.584178210107716], [123.64623523053191, -17.1839372159141], [123.58355309088998, -17.033246176446355], [123.64798120562703, -16.999724224670395], [123.8625030464502, -17.21655519103371], [123.91250198288192, -17.211844239854052], [123.79645815563495, -17.00399321117729], [123.95927712084178, -16.85240224642943], [123.79612910332874, -16.911824190581424], [123.71153813496856, -16.75270419153552], [123.5028101164308, -16.65881224598246], [123.61515097624434, -16.554318192550983], [123.51161103422545, -16.597742205366483], [123.51345100332551, -16.568401225129445], [123.46808128497948, -16.51821118592532], [123.42854105739163, -16.511182186866094], [123.42855112705927, -16.49885219678539], [123.66294312145912, -16.491076180983477], [123.509130998619, -16.38022120400601], [123.66553224988398, -16.436616190564223], [123.62924103018425, -16.356739200915456], [123.7169111048815, -16.372378228913668], [123.55021025338789, -16.28314017235896], [123.61663921853463, -16.261790190598074], [123.5584689900381, -16.175941181453847], [123.77056803628409, -16.170579246314666], [123.87110917669578, -16.44704125578438], [123.88380928232029, -16.30401919454876], [123.98759902720803, -16.37041920261241], [123.90991823831821, -16.21027923332876], [124.12445697616823, -16.280418198957552], [124.41030704355092, -16.54323718457275], [124.46822603874635, -16.498537173077676], [124.33653619558835, -16.418807155293443], [124.38749600061583, -16.345606203735233], [124.44923566805068, -16.41089660288595], [124.84052287298142, -16.434306125291723], [124.91719352769778, -16.42080451375996], [124.94896421505184, -16.392073012977256], [124.39455596999808, -16.338516173540444], [124.44435514070773, -16.065375170685193], [124.50817520971854, -16.20601521031048], [124.64695410849833, -16.09809421679572], [124.60785417656994, -15.891303196190808], [124.7415941467256, -15.822262203086824], [124.70479312732829, -15.74105214326079], [124.63279422261185, -15.778943144939484], [124.49649501588944, -15.997044199154688], [124.36882495666994, -15.671864209637826], [124.50063425774414, -15.636673296659986], [124.41756395091903, -15.548883157792789], [124.51721299306139, -15.468613155194141], [124.62877304747494, -15.525652193320093], [124.64468320436455, -15.424792152324931], [124.67420320411377, -15.498072222231245], [124.70504189711643, -15.253381209975837], [124.75326208631391, -15.354411149712428], [124.84680197954162, -15.299041187536476], [124.97885101376907, -15.409591155803668], [124.95295193691409, -15.489211176821987], [125.01711221407817, -15.544651186013045], [125.08866147813396, -15.46320036416273], [125.22530740183173, -15.57228072248281], [125.421194531985, -15.696011179998486], [125.07004118882634, -15.440230204343234], [125.16410018104636, -15.330560171916574], [125.08857000573705, -15.3376901433139], [125.11892990234605, -15.255600152211802], [124.89792088728413, -15.339911166843372], [125.05604007435869, -15.164420162727904], [124.87578089705137, -15.261901136734703], [124.83392116745271, -15.157951136829686], [125.02986986492479, -15.113270192858431], [125.07429890965145, -14.975749201115786], [125.1632491477303, -15.15134919071444], [125.48133793887344, -15.154788185319266], [125.3576581353993, -15.108359157057535], [125.48160719615105, -14.998568054246814], [125.21372795136053, -14.969799208589778], [125.3339870427161, -14.881298155909297], [125.21010820962545, -14.864869187938538], [125.14143816140817, -14.747659128356212], [125.36414497425766, -14.505729152829607], [125.42995586291933, -14.641478212654828], [125.52031511533737, -14.500231130200458], [125.53479502560572, -14.563897120402636], [125.59933509192011, -14.562626159358235], [125.5976110765504, -14.23663219714331], [125.73007197994454, -14.280971145373954], [125.64853486057635, -14.650212169183076], [125.80356308845167, -14.444186155382557], [125.93631310406793, -14.646316154821557], [125.92059296329649, -14.537226164295413], [126.05130211576977, -14.528786152375822], [125.97668312795386, -14.39328619249156], [126.08844006108627, -14.351195180628942], [126.05340991161482, -14.254195140442798], [126.16972701364772, -14.146174178094794], [125.9930868721691, -14.068197110004164], [125.9762370926576, -14.039627150046917], [125.98385613149543, -13.989798189592015], [126.10262479580355, -14.040826118277518], [126.01121503906013, -13.92570810875699], [126.15839383098299, -13.915026186639356], [126.10977510523361, -14.028276158091746], [126.1870440701896, -13.968115116622291], [126.21583398862629, -13.967565136233455], [126.14431388316783, -14.014976137526446], [126.21748385958821, -14.042915116736467], [126.16026511290707, -14.057526157605933], [126.14953495363338, -14.067496177820834], [126.15083490374283, -14.080146127891183], [126.25363905032766, -14.239163167625668], [126.36080705375085, -14.189923175901487], [126.33433484333048, -14.050022125262087], [126.53700075086239, -13.934432161949534], [126.4494739475021, -14.083722194053971], [126.60167405105716, -14.235811113299663], [126.64485208676682, -14.077081171689581], [126.69384303477594, -14.134710151538739], [126.76274091003233, -14.050079100181108], [126.70080690306465, -14.021555140666289], [126.70534491225943, -13.973913140280844], [126.9053801215754, -13.985218438208527], [126.80557982635396, -13.930459098875046], [126.7431579281159, -13.792278138583338], [126.76652190667285, -13.774826148203534], [126.96329799587045, -13.741658175898543], [127.14288903870693, -13.982237105857603], [127.19073805537562, -13.903996144863667], [127.20775884511983, -13.973576125202381], [127.21044875470109, -13.944606124972925], [127.24671803233751, -13.900406124335737], [127.43007687285944, -13.942935083087272], [127.95264598862862, -14.586022174070658], [128.22171573401803, -14.721224293657777], [128.11851516067043, -14.861326075151364], [128.08936871520055, -15.390291509072044], [128.05241888792452, -15.4794819898959], [128.01949921001048, -15.494311980174478], [127.99553908158371, -15.514131950444266], [127.99878904140836, -15.518091950454783], [128.06812892703766, -15.492061989904457], [128.11433854388983, -15.427981929216134], [128.1283077817785, -15.183669857405562], [128.2580271746308, -15.306310997684013], [128.29227760325455, -15.459841078635788], [128.32737742131644, -15.505100128816112], [128.34164732043132, -15.501270088732179], [128.1940357774307, -15.09349913644901], [128.26547484270753, -14.982568005336116], [128.33120440908746, -15.03538845544002], [128.31392446962522, -14.925667284724042], [128.3618641874151, -15.066588515542135], [128.35811406732373, -14.991258195016743], [128.41038338442334, -15.032058415110589], [128.35821422687687, -14.885017064254301], [128.4486228620659, -15.002038244757214], [128.42167363318023, -14.881717453989932], [128.50173239887252, -14.978458124406627], [128.51143215842646, -15.0135983546274], [128.5189921179871, -15.014738394611138], [128.4669833105778, -14.889077993881651], [128.38095427530692, -14.823386553723616], [128.39343497451014, -14.804436153539946], [129.0014933995453, -14.879594592583096], [129.00192754386302, -31.686990625022766], [127.32596900005915, -32.25651224331091], [125.95101938308787, -32.29052863652231], [124.81404883468088, -32.87284904654373], [124.23866478545122, -33.017577107919166], [123.97602964118046, -33.558592686059704], [123.5342951919231, -33.94011867758323], [123.37145542603038, -33.89587915108654], [123.16307754290565, -34.01662120663604], [123.02272732932076, -33.85663035925474], [122.11358273816941, -34.017185774300344], [122.00101170801808, -33.82928496661624], [121.78988348441975, -33.90903543324505], [121.36188403714588, -33.815429036006336], [120.43658009933812, -33.97186798799402], [120.0421780884715, -33.92335434217642], [119.59747209985653, -34.13457303020049], [119.45712992084543, -34.289061626461645], [119.57628809759221, -34.38716740220127], [119.41574437228519, -34.37327510850008], [119.4186282068091, -34.45890733877789], [119.28986140690299, -34.45196653392538], [119.25450003742871, -34.534586755736846], [118.91180107771775, -34.462864569585186], [118.72239545999581, -34.65687967850344], [118.44015412190393, -34.760743041229325], [118.40343531794103, -34.916690513538455], [118.17533360636547, -34.94007988382602], [118.1946562687612, -35.02310864331835], [117.96188555583693, -35.01311614387197], [117.94894108320965, -34.94363670416579], [117.84825862643409, -35.04488352926529], [117.92036425446018, -35.040856835906624], [118.0212196526355, -35.10791508156129], [117.94826500589222, -35.128261714998665], [117.68560658270715, -35.04333212687565], [117.61124629108721, -35.13332387078148], [117.33247731846029, -35.02279885370713], [117.46577690671977, -35.02053037724902], [117.45520996462095, -34.96694397752773], [117.36916586870215, -34.96947358169685], [117.33423723608416, -34.99369844349725], [117.32643831904751, -35.01737385397788], [117.3370413885717, -35.03462589353561], [117.32607756101325, -35.043883114108574], [116.63038496487621, -35.06082124905794], [116.00226888889799, -34.842449611387], [115.60553727925564, -34.43806209157607], [115.17668668222655, -34.265645595246994], [115.13400786817917, -34.376072648164964], [115.02372910501892, -34.25291764407685], [115.00374292738475, -33.53089965228352], [115.3672531310691, -33.63937790172401], [115.66627096023892, -33.3220726135129], [115.60825799719406, -32.66670553395724], [115.62782205905964, -32.5995345425695], [115.71054922080143, -32.52055452760174], [115.64101629860961, -32.61849160191174], [115.71244191132712, -32.787706868651384], [115.6663640446769, -32.61571527048092], [115.77751090688028, -32.596329664206976], [115.68475760480764, -32.26596760793425], [115.77457726627414, -32.19379366261514], [115.73224737175117, -32.055664744364144], [115.90163972532535, -32.027558614861405], [115.84509362868401, -31.965213617704233], [115.86377651672997, -31.974643636714152], [115.8837396434517, -31.969053635588686], [115.89110881188716, -31.962309595152966], [115.88593453097704, -31.940542645341786], [115.89874114014152, -31.953662044694564], [115.91484303765127, -31.95115392379779], [115.91900294653556, -31.944256843538636], [115.91013085717674, -31.93597963398975], [115.93631766306258, -31.931009552529083], [115.9390556425125, -31.928899512369487], [115.94126250155543, -31.920387462210694], [115.94807745079126, -31.923151411849126], [115.95141943030694, -31.923054381665462], [115.95609627915104, -31.916571321380392], [115.95944427852497, -31.914601291188184], [115.96393925753777, -31.910007240921587], [115.96447423734186, -31.90841822088524], [115.96273825775864, -31.910665250990295], [115.96533139691246, -31.904337580820204], [115.95864693718677, -31.89531914114641], [115.96625597614506, -31.895892070732117], [115.97403387487195, -31.893708910296606], [115.95810392725359, -31.89517814117554], [115.95069742036094, -31.92240340170216], [115.94117249152067, -31.91975646221284], [115.90890981726437, -31.934832874051846], [115.91408299769579, -31.950306943835823], [115.88473598098318, -31.938365095398215], [115.88337964334278, -31.966938645599168], [115.84251964889776, -31.96318762783755], [115.80414688741173, -32.00290761013652], [115.77380287070518, -31.98919565176001], [115.77979445211635, -32.0188538115577], [115.75579457606352, -32.02551759292083], [115.75839665671377, -32.03886458283474], [115.73696426085205, -32.05276365408864], [115.72438443275387, -32.054042814795295], [115.68579361754419, -31.653695635187507], [115.05396470558487, -30.50506265633195], [114.95485678304217, -30.04883764014081], [114.99757961430639, -29.49353434510902], [114.8720943211866, -29.11672731085108], [114.57607564245836, -28.784355657199068], [114.53100688541251, -28.496028888639415], [114.17511664837131, -28.110886698937936], [114.10510360592643, -27.849478702151245], [114.18167650335714, -27.680296866560706], [113.96643657300905, -27.23200068811626], [113.15628049710162, -26.151660796215562], [113.26997175194629, -26.24175977901131], [113.29927860023085, -26.015947706021937], [113.32671242347337, -26.337260755667824], [113.39990368192889, -26.418230701182768], [113.36374956328167, -26.01746672174025], [113.47697353809232, -26.477040736364103], [113.53722165536036, -26.279506751495767], [113.55823560682877, -26.57399072147135], [113.63056354975767, -26.463258756235057], [113.66401942300006, -26.674442675027098], [113.88287455503848, -26.508456740121222], [113.88067136158142, -26.335364689458952], [113.68806058363691, -26.217525711356153], [113.5803103959097, -26.097205717829578], [113.4144854140366, -25.724723707024953], [113.51109245584176, -25.50328968961681], [113.76186734856277, -25.878581754991025], [113.70322053053744, -26.199755670288642], [113.83008954284306, -26.153833701867523], [113.87722760119215, -25.945111717859785], [113.98081257188572, -26.3541836831385], [114.08192249950656, -26.468313667244047], [114.2191314457279, -26.360322668085082], [114.19467733934869, -25.98355764784865], [114.26684544407271, -25.88772671286322], [114.00419339187027, -25.618505678195202]]], [[[125.214287044608, -14.607228186108284], [125.09612714017855, -14.54619917779841], [125.16536595425988, -14.439920155831443], [125.214287044608, -14.607228186108284]]], [[[124.59105292642721, -15.369012223025257], [124.48440708326673, -15.386748175319411], [124.48643308355705, -15.405605195404052], [124.46492309484987, -15.405062175844815], [124.49481597056959, -15.292206224470815], [124.57131594496185, -15.24536518259345], [124.65510304317739, -15.398562201941152], [124.52464304216872, -15.44837323490641], [124.51377319235053, -15.426353194981225], [124.54115297083568, -15.433212204467763], [124.53890300053179, -15.412872194377144], [124.58981308677865, -15.381912203136913], [124.59105292642721, -15.369012223025257]]], [[[115.32104094449181, -20.891567613837587], [115.43105919034257, -20.668364756205975], [115.46868907795368, -20.680224534068984], [115.39494077784713, -20.88641717946529], [115.32104094449181, -20.891567613837587]]], [[[112.92868344012233, -25.52649577877691], [113.21978953065224, -26.036708721428433], [113.21629072137128, -26.16248976223818], [112.96739641725475, -25.783238777311528], [112.92868344012233, -25.52649577877691]]]]}}], "crs": {"type": "name", "properties": {"name": "urn:ogc:def:crs:EPSG::7844"}}}