{"type": "FeatureCollection", "features": [{"id": "0", "type": "Feature", "properties": {}, "geometry": {"type": "MultiPolygon", "coordinates": [[[[129.6827714395971, -15.129752694638453], [129.6416211321155, -15.079012684195986], [129.64054083224318, -15.042152733924857], [129.6640306708879, -15.03012279387665], [129.6338907526529, -15.030572753829414], [129.6230202934175, -14.953242953246985], [129.59325589513003, -14.967055163303522], [129.49971545077383, -14.79009561189702], [129.5921258553101, -14.89099517274607], [129.61839990381233, -14.875593232672115], [129.57755483628657, -14.798285172048178], [129.63205966307487, -14.843853382461191], [129.80254962319876, -14.858003602897828], [129.88137928875108, -14.820093842816046], [129.86395918980475, -14.801663902635035], [129.9028388776514, -14.773203982529632], [129.76898947520684, -14.82801369260245], [129.74948935637147, -14.80968376242652], [129.77681923483163, -14.795363862380196], [129.7938090739181, -14.769044002225192], [129.80403907333033, -14.769404012251345], [129.8099690130052, -14.763304022220407], [129.81005898300748, -14.760304052198606], [129.7344093772731, -14.793953842280244], [129.67240946089436, -14.7634540019399], [129.66467241140586, -14.726046281652529], [129.589199905817, -14.661244911061466], [129.58363379619792, -14.616225170724336], [129.692388790039, -14.612774740871346], [129.77962375526428, -14.539912140511502], [129.66934875140322, -14.580474910593788], [129.52627967952395, -14.55227612018626], [129.48824383171754, -14.503325629789769], [129.52307336980306, -14.465545449548022], [129.49044354163627, -14.460155619475968], [129.50689350070294, -14.471725539576504], [129.48268382203224, -14.500935669767221], [129.48167354213717, -14.449635669391025], [129.454003693688, -14.446375829344234], [129.47446380250312, -14.490975719687134], [129.45319405368576, -14.505045839772645], [129.4511639238171, -14.483565859614037], [129.39785384684572, -14.416116149086749], [129.35677415913557, -14.423616369123733], [129.36702357859787, -14.338086318502514], [129.4194529757205, -14.291106008184716], [129.40930272631337, -14.235926077775098], [129.51204143077845, -14.127035497056422], [129.47899119264858, -14.047915676446152], [129.51584111062573, -14.075355486681133], [129.53560078957327, -14.058345126576848], [129.52767134992376, -14.129985397093996], [129.5567212583259, -14.142145247215673], [129.56716091783136, -14.083845106800318], [129.59487722631678, -14.091217406889932], [129.60929647556563, -14.069576706750754], [129.59064647662734, -14.0328469164556], [129.59810615625506, -14.011046846305375], [129.64088587388952, -14.047186426632605], [129.72131456960554, -14.013415676521573], [129.74605400835097, -13.975125526287446], [129.74727361840186, -13.91918559587781], [129.715533730178, -13.878865935520132], [129.74003311897752, -13.826855755183258], [129.79484220615325, -13.789505345020656], [129.79017206667595, -13.66689596410576], [129.83484084459485, -13.561176123424609], [129.81733069564245, -13.501746582945392], [129.87670977257682, -13.50241311309106], [129.89743929167457, -13.440396152684812], [129.9098995108314, -13.514325713264553], [130.00837807568465, -13.533324633686759], [130.10637560089748, -13.456293723436968], [130.14161529908444, -13.457103303568642], [130.19082375681006, -13.394195123285458], [130.23929673480902, -13.281950132641716], [130.1630636090698, -13.176904831564379], [130.1161842514649, -13.164125291300412], [130.12924275154054, -12.966564609876393], [130.17580155947095, -12.910263609626243], [130.2471306958239, -12.948363590187672], [130.33824871162358, -12.890102760139149], [130.35203728197374, -12.670323498557735], [130.40411674933338, -12.701463489029518], [130.39358643002714, -12.662273258686987], [130.46089395693218, -12.639161948836657], [130.51358305426933, -12.667751419317279], [130.50119477459432, -12.717952389629785], [130.51916522355836, -12.750122669963659], [130.53111430312075, -12.724922119837247], [130.5114243341448, -12.710242149624627], [130.53577399292936, -12.719011959817461], [130.55728301199213, -12.701981379804145], [130.58326301064957, -12.719231470074392], [130.56992409115153, -12.743762040185691], [130.5960327600441, -12.717981310135327], [130.6295424183789, -12.727781170396772], [130.63094281820833, -12.745291440536182], [130.62520307843593, -12.753531560565447], [130.62435379835009, -12.775091100722442], [130.64356250761108, -12.743681290596218], [130.6214619388992, -12.70519085018144], [130.68715124561228, -12.727940600732397], [130.67976178586116, -12.745240950818657], [130.68915166537113, -12.751480910921126], [130.7073406347146, -12.716500240767031], [130.7387702332457, -12.710529950913374], [130.70607054481, -12.710970160717833], [130.69020100551612, -12.719800450689347], [130.67914106608524, -12.713490450576483], [130.70271024506656, -12.695609940582218], [130.7019601651344, -12.69046987053909], [130.6740710363627, -12.707840410504215], [130.616471009351, -12.668700249879397], [130.58587196072259, -12.684430819827586], [130.5456710129212, -12.634290269234457], [130.54991026281988, -12.616089879120446], [130.58283009121672, -12.6229597193496], [130.58651119082853, -12.660440369651061], [130.60719931016587, -12.604299199343988], [130.64244987828465, -12.639409529806787], [130.63148918898543, -12.609019119516024], [130.58923927108765, -12.592109199153134], [130.6039490604694, -12.578378999131264], [130.568419452086, -12.590089329024588], [130.58284896183932, -12.51278877852257], [130.6057686608263, -12.50143847856347], [130.5809687022106, -12.4626285081356], [130.62324822031763, -12.447747938257699], [130.5785090726477, -12.405338927691869], [130.61930859088685, -12.381358727736531], [130.7651569237514, -12.4373568490211], [130.72707775497005, -12.526217709455494], [130.7788971328661, -12.474736999388783], [130.7744077026152, -12.545577759893972], [130.72929808451588, -12.581578219885523], [130.72937816445432, -12.59071830995477], [130.73203821428902, -12.596918360017646], [130.77856775233042, -12.559127920022192], [130.76736816258318, -12.601678380272073], [130.77471839214118, -12.615988530425948], [130.7771381221336, -12.599578330317684], [130.77992840187105, -12.619458580484935], [130.79185842128828, -12.621888570578943], [130.78820766194653, -12.54826777000143], [130.81016748096647, -12.539877610078706], [130.80511774104733, -12.563497890224125], [130.82885784975895, -12.588128130563415], [130.81606763056564, -12.55816782025458], [130.8414775093853, -12.555307720398863], [130.86802785781146, -12.601468160923053], [130.84722807871532, -12.613478380875101], [130.86930798768012, -12.611628271008207], [130.86976847733052, -12.658718711366156], [130.8798181670438, -12.631268411226976], [130.90000832591335, -12.655298571545407], [130.89622841602463, -12.665018701592823], [130.89522860594883, -12.682458851717444], [130.90818829551563, -12.65641856160998], [130.8822979371018, -12.6061881810547], [130.9329378146646, -12.611088001439718], [130.9452980338829, -12.637848251728244], [130.95470798344178, -12.636968201788044], [130.96685785291714, -12.629768071820058], [130.95332766380156, -12.59684779147556], [130.88465755721035, -12.574777820833873], [130.8778276376895, -12.552417080619156], [130.8933674768991, -12.560517620785477], [130.9000374465898, -12.559717600824937], [130.90142740654872, -12.556247540808274], [130.85921697888384, -12.506577070148944], [130.90361707675027, -12.513277070499152], [130.9080472663467, -12.540727350736594], [130.92262696588563, -12.509236990599591], [130.9538573540823, -12.55511737116438], [130.95515715420947, -12.529387110979364], [130.94193707488708, -12.521787070828902], [130.94728687481987, -12.496476810675436], [130.93058681567427, -12.486676750484607], [130.94673671503088, -12.471036560479515], [130.8838992978179, -12.49319292021353], [130.87032601852448, -12.483147290046444], [130.90789662688158, -12.466496570175531], [130.91695658652066, -12.457666440171224], [130.89075659769304, -12.465176550048643], [130.88600644807033, -12.443036359849435], [130.87868658826872, -12.46361653995529], [130.85005759977795, -12.438829869577422], [130.85192938947347, -12.470520559828746], [130.84117991995933, -12.473088739777227], [130.81513769130547, -12.454202609465243], [130.83556841053266, -12.427273419395034], [130.81638642156193, -12.407116519118407], [130.8431662203112, -12.40774629929762], [130.84215801055421, -12.378894199073414], [130.89601573839806, -12.33004583906458], [130.94606595588962, -12.357175879614978], [130.98280590430218, -12.341855739759804], [131.01877610241348, -12.37163571024574], [131.0089260329853, -12.356365730058304], [131.05505590091647, -12.347775400334044], [131.02982593209396, -12.346385560136055], [131.0297758522549, -12.325595529978452], [131.05162588118841, -12.333115430197488], [131.06096587076482, -12.332115400259871], [131.02845576246904, -12.305485459816618], [131.01298585304738, -12.323265569837643], [131.03046548294031, -12.231495379271655], [130.9946355549175, -12.186045438666726], [131.0306151035807, -12.14642528862893], [131.0653448118478, -12.166795199041358], [131.11320426976712, -12.15504499931675], [131.12544442899065, -12.182575049620187], [131.16906408708329, -12.173204929892323], [131.22205412421815, -12.227165100729737], [131.19336450544088, -12.237715150576365], [131.20598448458918, -12.270375250926305], [131.23205406342382, -12.266775191112457], [131.22197426379097, -12.277995261114679], [131.2223342637371, -12.282395241151008], [131.22501420359163, -12.285025271192957], [131.23400400333824, -12.266325201125124], [131.20699444460382, -12.263125210879531], [131.212324284553, -12.240175130748874], [131.25088394296262, -12.220015050913583], [131.22888407407532, -12.20726504063482], [131.26636443349486, -12.076915019956166], [131.2971345524114, -12.042595079955023], [131.334323409231, -12.211455421557941], [131.38088360669448, -12.256476372309193], [131.47230410224716, -12.28369792334711], [131.7545488394033, -12.273886776066265], [131.8792678043676, -12.214537116956528], [131.93941644094645, -12.272917068075927], [132.06972296460512, -12.303526059821532], [132.23820104861565, -12.16974686085549], [132.26173131750198, -12.17341726118132], [132.27847138607348, -12.224197511785345], [132.35317224301713, -12.198808702556205], [132.3894017408576, -12.236398853323273], [132.41712147978836, -12.222398993584495], [132.4420215597134, -12.146459253333111], [132.55600664544477, -12.085688134427743], [132.57718062420233, -12.105852144880282], [132.6289686421545, -12.086891135467443], [132.6187596336675, -12.015072144766249], [132.65533120389716, -11.889801514319485], [132.63618462575045, -11.82112513351315], [132.58045963867, -11.787522142463724], [132.6448506367456, -11.727995132915481], [132.54110665136173, -11.718982131384145], [132.49958863369977, -11.680402120513866], [132.5057526540507, -11.636704120260115], [132.59718262987894, -11.65418013166632], [132.53776464338102, -11.587373130318955], [132.55470163311588, -11.555425130306421], [132.4974666362507, -11.50538412913026], [132.5269766355225, -11.468718129250995], [132.48423662708663, -11.485590128796794], [132.45699963862793, -11.457277138209047], [132.35504164313116, -11.441355126734964], [132.30392565495896, -11.465659136262428], [132.23788565786617, -11.455969125351194], [132.1156946522561, -11.517184124325144], [132.11589365196068, -11.540446124506717], [132.06610367427754, -11.523844123786743], [132.03482364609368, -11.482996123105925], [132.06007664564038, -11.432200123010253], [131.99333566847903, -11.429295122213466], [131.9947086587131, -11.404523122038603], [131.940265661082, -11.396936121362666], [131.98494267943875, -11.377544131719297], [131.9660826606299, -11.342915121238347], [131.91852166242631, -11.35899812082796], [131.94360669182683, -11.320269130810573], [131.86008067559263, -11.293719129683558], [131.8396956762077, -11.314457129622236], [131.76387568933123, -11.316793118835248], [131.7594346696882, -11.300690108665313], [131.80560767784738, -11.293914119099542], [131.7949876685614, -11.268693118793246], [131.85313866603022, -11.280235119504614], [131.81529667833271, -11.212917118580627], [131.8396186671736, -11.227411108952653], [131.86056867651098, -11.209541109041908], [131.88086267538966, -11.235199109460465], [131.87617867604382, -11.194053119092885], [131.87906166602082, -11.185570129059174], [131.88324368588843, -11.182115119078388], [131.92892766313668, -11.259173120176255], [131.9617036818536, -11.253202130498474], [131.9874906711843, -11.219569130532454], [131.9619316627012, -11.17928611993212], [131.97052266244089, -11.171451129969007], [131.98297369181952, -11.181082120184616], [131.99557768138874, -11.17385713027285], [131.9735436628114, -11.128986119676274], [132.01188866123525, -11.130384130125138], [132.04658664899512, -11.199670121061073], [132.07518166807358, -11.178974121236877], [132.0864426769608, -11.232686131784021], [132.11448865606351, -11.211830121956998], [132.1006646451871, -11.329943132702661], [132.12358266397794, -11.350762123137347], [132.1376356740602, -11.29692312289144], [132.1704576411486, -11.420657124244439], [132.17744568115214, -11.397092114148219], [132.20930666960405, -11.413985114671185], [132.19107168115406, -11.351854123966554], [132.22302366958627, -11.370425124505383], [132.23764165934585, -11.341675124465844], [132.19815165149552, -11.30162113366611], [132.17327968225095, -11.323500113529505], [132.2002876723841, -11.224467123096833], [132.1356276663019, -11.122361121520443], [132.18762264407974, -11.131107122220081], [132.28227265836088, -11.274874124512275], [132.2657316603216, -11.176177123540146], [132.31689465830445, -11.170674134148612], [132.33259465837827, -11.11665613393271], [132.34420665786104, -11.120130114109653], [132.38304064509947, -11.20823512529785], [132.37347366432545, -11.295042125844194], [132.39797867324287, -11.300143126205818], [132.41989064333197, -11.227146125930918], [132.45098765218316, -11.217876126274396], [132.5069256591267, -11.272284127453696], [132.4870746595582, -11.300046137398319], [132.51020663870761, -11.292486127655158], [132.5018606585239, -11.33020512783338], [132.54768264644525, -11.342676128560232], [132.62243464233777, -11.411491140141843], [132.66839364886613, -11.51623112161121], [132.73414365605686, -11.518111132581556], [132.8489646231582, -11.392585143319002], [132.89574762066258, -11.427036134301373], [132.90920564077058, -11.384669134178683], [132.86506163330674, -11.340157133155543], [132.9182686312253, -11.332244133910272], [132.9688816377519, -11.417679135364097], [133.00724262589455, -11.433236136090288], [133.07564764158454, -11.520305147864164], [133.07090264120055, -11.555523138062217], [133.15284162515434, -11.706942140581083], [133.24926159054993, -11.732867132395732], [133.33986659733236, -11.693982133643495], [133.3535846162869, -11.719452144080712], [133.31647560778416, -11.725211153483691], [133.3165215970262, -11.767829143817615], [133.3695916145609, -11.777093144810358], [133.40189360396442, -11.732736145029424], [133.39815560347694, -11.768572135244092], [133.4475936011422, -11.779148146201278], [133.45621461034, -11.802470156537433], [133.53435358772177, -11.7609871376191], [133.5176915962778, -11.877037138226124], [133.56339160557144, -11.808440138520519], [133.63069760209692, -11.837138159987077], [133.66394658099182, -11.819336140467945], [133.66855459162832, -11.776020150214308], [133.7395515784151, -11.783130151612324], [133.79446757717992, -11.725590152213003], [133.8372075853834, -11.723426153024413], [133.8679085734232, -11.755073163873462], [133.91639958156864, -11.74337916473742], [133.94118056993165, -11.77108814544819], [133.89068957126236, -11.813051164777738], [133.84727859313716, -11.813572153930041], [133.8232315836268, -11.84129415367971], [133.83914657221658, -11.87696916426998], [133.9159275679613, -11.920930156125848], [134.0388965739417, -11.855303168080344], [134.07873756130422, -11.897868149230673], [134.07582256061397, -11.936505159475482], [134.1315625889456, -11.90004516033875], [134.17579857579636, -11.95616617170462], [134.15114055627046, -11.984577161413224], [134.1825125646755, -11.994277172146283], [134.1942615533898, -12.02957317267186], [134.16233956326212, -12.101045162565919], [134.1823905816189, -12.135510163258093], [134.1936355724274, -12.07514416301832], [134.2538305706391, -12.034563163972829], [134.24597256208497, -11.984570163410666], [134.28627056033434, -11.98332417426141], [134.36224355555714, -12.046790166404927], [134.49557454904385, -12.072652169551755], [134.60453554472113, -12.05047516183744], [134.6890075330853, -11.962255183080346], [134.74857655078512, -11.949119184364482], [134.7721515294997, -11.959454175000388], [134.7649495388107, -12.000900185160424], [134.79851854614515, -12.049429176337995], [134.84345552386287, -12.06124117749963], [134.85575452156573, -12.132172168357528], [134.97057552577124, -12.158570171342431], [135.05584250929684, -12.262296184266514], [135.14451053594513, -12.237045186280513], [135.2127935213144, -12.29598318847992], [135.16121851549215, -12.225533186609894], [135.26630453077695, -12.224913179281689], [135.29673150853026, -12.257760190328051], [135.34273552675236, -12.246642191432173], [135.35291351671492, -12.23100220157229], [135.31426150814772, -12.242490200659542], [135.2228014936556, -12.190008197889119], [135.30533551071358, -12.161551179781618], [135.305456511691, -12.12475819949062], [135.36623153004913, -12.08523718075391], [135.42241549760564, -12.083427202213574], [135.41567150703708, -12.115340202291405], [135.45273451540152, -12.11484619326639], [135.51956751393064, -12.060525204611185], [135.56953951060245, -12.100640196276382], [135.65434648857018, -12.039296198088751], [135.91047749982542, -11.952537194537907], [135.8771984702872, -11.98649820386694], [135.83149949234476, -11.984629202562596], [135.7585934828105, -12.079784211289397], [135.65419450526122, -12.15665619902676], [135.65764349350175, -12.213400199576554], [135.7216524786724, -12.281813201887596], [135.70767648850455, -12.309809191726018], [135.74608247810164, -12.263256202415802], [135.7699624968117, -12.270653203139632], [135.8039284773509, -12.199124193514072], [135.8858814951285, -12.149718205426927], [135.89288547362267, -12.19040820595314], [135.91208049393663, -12.150553206178236], [135.95939847178, -12.152190197543716], [136.0011755009324, -12.118187198471672], [136.00337349184093, -12.08443320826305], [136.04507448063666, -12.063069209298177], [135.9735274801436, -12.186098198222503], [135.92859047111867, -12.221137197217185], [135.96893547773843, -12.274005208798386], [136.0016954764348, -12.268190219695173], [136.01347548693857, -12.233588199756873], [136.06295845424853, -12.24913422131857], [136.0294354743454, -12.29618821072333], [136.008881485447, -12.290404200081674], [136.02324047391923, -12.31975321073358], [135.97607648456307, -12.369892209775507], [135.9665704637286, -12.41250621984505], [136.01481846199954, -12.396607211108524], [135.99623448144658, -12.443497210948749], [136.01648244901716, -12.493561211937003], [136.06424047873375, -12.430100222813914], [136.08537546693086, -12.457688213653343], [136.15113945458194, -12.435825215410137], [136.16041647333776, -12.46258722590004], [136.2231304404734, -12.462147217759753], [136.22023147008645, -12.478977227808995], [136.30412244869402, -12.400204229690928], [136.3435964712336, -12.26200922976902], [136.37913345000197, -12.250397220756224], [136.33916946323114, -12.204632219170788], [136.22892646786087, -12.21437721593289], [136.21627746931253, -12.185623225323479], [136.16998247118136, -12.192116224001333], [136.16715946218085, -12.16354021368714], [136.21635346030055, -12.153410205065562], [136.26463146083046, -12.066933215809666], [136.34147344773254, -12.057628218051455], [136.41546146762988, -11.95777120949753], [136.43134645651907, -11.970980210091643], [136.44320245693962, -11.941402230216163], [136.49074844450246, -11.952936221776422], [136.5314134639549, -11.91481621272934], [136.56162447255, -11.917743233695337], [136.562326483841, -11.876736223384384], [136.58077445178392, -11.91573722427835], [136.4715684650691, -11.961381211252027], [136.47265145386265, -11.997772231580486], [136.4568444751687, -11.9784472209363], [136.44536945504004, -11.998297220743925], [136.48994044183513, -12.03755822243753], [136.50344446254394, -11.996872222526054], [136.53101546151487, -11.991355233337927], [136.5624344373217, -12.078724215026913], [136.59052644556746, -12.09462223603609], [136.5792954641491, -12.153752226163391], [136.602596441417, -12.205962227318564], [136.6464044385022, -12.235265228938477], [136.64881543725326, -12.270125219297594], [136.70734745402848, -12.288152241304454], [136.7417704630062, -12.272261232276552], [136.76201843339507, -12.233188242609216], [136.74813146464743, -12.214163222008715], [136.72259642528712, -12.229321241313965], [136.7298364554935, -12.213291231415392], [136.6807364385735, -12.186306239630115], [136.7820834349813, -12.158596242648882], [136.8128454519862, -12.207315234038274], [136.87230843895352, -12.21857523606174], [136.90119442560155, -12.27948922750128], [136.9268044244107, -12.28067624835101], [136.93381443225945, -12.33466124902067], [136.87777142369404, -12.367130237447983], [136.87070644352005, -12.381769237336371], [136.92156342253617, -12.34280323868425], [136.94345945102856, -12.358001229527998], [136.9789204399557, -12.342455240572122], [136.9637684495606, -12.374058230328425], [136.90249042179803, -12.390012248442517], [136.77265543217405, -12.555569245568583], [136.76085944371044, -12.5258182449475], [136.79543643322668, -12.492702245793486], [136.79377342466884, -12.451870225408321], [136.72572045678754, -12.481826243463113], [136.73852242380994, -12.553782234456868], [136.69647260539355, -12.564631073199983], [136.66927298579765, -12.590551352544132], [136.68040307485245, -12.603561213003491], [136.69715266521268, -12.569151053258308], [136.74728041349746, -12.551017244715494], [136.76220344193106, -12.57733323540859], [136.6929144334693, -12.627839233598738], [136.67843444281525, -12.668073233463438], [136.69445542065986, -12.710604234318334], [136.63291745392397, -12.699082232270387], [136.60630643440416, -12.722528241619894], [136.62168843984662, -12.839477233051317], [136.58512741228168, -12.81806923172598], [136.58549442381664, -12.770504231352895], [136.55061243645088, -12.740064220012982], [136.52513141706436, -12.75816422936362], [136.54261743467043, -12.806550230300449], [136.4841304286655, -12.768478218172469], [136.46552943915404, -12.78061022769463], [136.48847943740245, -12.801329228572683], [136.4825274463407, -12.843071218725227], [136.51864544357971, -12.875348230108287], [136.55287141199727, -12.873846231164972], [136.5468134309116, -12.916135231317059], [136.63810642542586, -12.950128234465433], [136.66821243219098, -13.004275235858838], [136.62936343364495, -13.017007224729209], [136.62080341567665, -12.967762224060527], [136.5816344358936, -13.018711223237553], [136.56239341682425, -13.018666232633072], [136.5562904388989, -12.964029242000565], [136.53186142916843, -12.99189024146157], [136.4539644433297, -12.979208228940221], [136.48068343114227, -13.007160229992527], [136.50776741018592, -12.99632422074634], [136.53540141812266, -13.018829231789603], [136.53378344710467, -13.052566222011386], [136.5670634152772, -13.059152223106462], [136.5316944339012, -13.154228242766436], [136.51107941538947, -13.139429242004072], [136.48385841602723, -13.16084824133054], [136.4687684339824, -13.247129221558131], [136.4467944150242, -13.248448240889186], [136.43959343636155, -13.217896230420832], [136.33081442835157, -13.324154227945725], [136.32809744082866, -13.250181217268205], [136.36809041877956, -13.25251421850494], [136.3882624386178, -13.226367228911393], [136.35626442268597, -13.147889227301922], [136.37228642428659, -13.072898217186827], [136.33284142748548, -13.032308215658539], [136.29146042713367, -13.107269215008868], [136.32141444527565, -13.119870216016773], [136.31619443428374, -13.159380226176504], [136.2566094273494, -13.15468823434045], [136.25395543852866, -13.121135223990853], [136.2432894482725, -13.146017223870816], [136.2190584497314, -13.137240213074731], [136.24747044722395, -13.173019214213381], [136.24467844606642, -13.214440214462604], [136.22159143757585, -13.202482223674892], [136.2008864472061, -13.247170233415657], [136.16220542927746, -13.241979222223705], [136.18117242711108, -13.281658223105575], [136.13414444173415, -13.207174231113866], [136.14525245385482, -13.12055421074644], [136.09744745494814, -13.161171219663869], [136.08441644340894, -13.23250421985399], [136.05007045490055, -13.23920721890334], [136.04637746292437, -13.310233209365144], [136.01192244753588, -13.214360217594477], [135.97611145875752, -13.232446226703516], [135.96411843745588, -13.29553521686323], [135.9480044595547, -13.25217920605236], [135.91872346047558, -13.26988520535468], [135.87990545966377, -13.362128224985511], [135.92090542713774, -13.378100216283357], [135.92646368567463, -13.417735696759708], [135.97299340380232, -13.402315277974198], [135.93125416396526, -13.46680540728963], [135.89433379706756, -13.425155985900618], [135.85973398836052, -13.44022628503701], [135.86928526427434, -13.561725556279283], [135.83974541564083, -13.566345805478505], [135.83529562514434, -13.590815735548077], [135.8806361005015, -13.669075087459774], [135.90740592945286, -13.658164838136559], [135.92164600818884, -13.675964728686402], [135.87939630928585, -13.712025087767456], [135.91450645642138, -13.74722472905114], [135.9562463543803, -13.743344340219007], [136.03360533223912, -13.682463831973816], [136.02591515356025, -13.652043951506492], [136.08306473052713, -13.655443533204005], [136.0134960608301, -13.762803862031138], [135.9890868980503, -13.89611354238817], [135.90974790937483, -13.990423840855838], [135.87877856573243, -14.166813151376713], [135.90359816368962, -14.190502802274548], [135.88145850515576, -14.181263031568243], [135.7940398085236, -14.226053609446986], [135.74709962950655, -14.278696238548468], [135.7025407321337, -14.271353907248539], [135.73015049989738, -14.296663678217953], [135.67033119942823, -14.424363517570947], [135.61962164224508, -14.423093736164654], [135.58952199153669, -14.505133705991316], [135.53662250285953, -14.561123764996351], [135.51842269203706, -14.625463585013327], [135.54106242999575, -14.652703395841403], [135.46501315359438, -14.675773633974742], [135.41634361465873, -14.735013663144294], [135.38208391684634, -14.725723872162948], [135.41094369108714, -14.873123034090952], [135.4154936408996, -14.870583034191837], [135.43114351887866, -14.910692684924928], [135.44024347811558, -14.919322585235781], [135.45582331638678, -14.948952335886052], [135.47047321494458, -14.970212146446416], [135.48001311411147, -14.980272056781972], [135.57996200649723, -15.045291360003064], [135.65733108182502, -15.052521072186062], [135.98153551591682, -15.286977333233077], [136.1646814118352, -15.392325259463345], [136.2097604791535, -15.392864650817902], [136.23971996663852, -15.416074361904387], [136.3174995552186, -15.625975015931433], [136.32644924546184, -15.601965236014335], [136.41207819952564, -15.62614437883986], [136.55546588672902, -15.750384564308478], [136.64407518400913, -15.672432706502079], [136.6716149726402, -15.6639121773155], [136.72413496836194, -15.696331509263423], [136.6826754980725, -15.77790270857789], [136.64629558064374, -15.767313207328119], [136.64279560079493, -15.769113277230609], [136.7137754634686, -15.856793180206678], [136.6908056432723, -15.903394069837562], [136.70638578135933, -15.931214080560421], [136.7714952788095, -15.889432712335497], [136.76074547853813, -15.916253132199767], [136.8229551653163, -15.899222044091937], [136.95325460594464, -15.938320138704627], [136.91271460980167, -15.899670597050468], [136.97799383754088, -15.850939218832398], [137.08358357773145, -15.944148343126336], [137.25442262472347, -16.012336319517157], [137.29493286966834, -16.08110598147182], [137.37261264289236, -16.133334884603375], [137.3569326045322, -16.115615103911725], [137.7296792268179, -16.232237858205156], [137.86202909093825, -16.422696794621608], [137.9946539678389, -16.538296570524707], [137.99906130486545, -25.996849173538216], [129.00057905637536, -25.998591879552773], [129.0014933995453, -14.879594592583096], [129.10129932378703, -14.915049262747726], [129.10842839342556, -14.989220013280875], [129.1306989020992, -14.948959422974886], [129.15334835079685, -14.983409903213003], [129.1889276787194, -14.987159093226058], [129.16951788988106, -15.05151863370025], [129.20055810807747, -15.122595724205912], [129.17467862961558, -15.147439104394186], [129.17492879960884, -15.168358664545813], [129.15752910064757, -15.18434797466869], [129.15642917071509, -15.189197834704327], [129.15819921061384, -15.197587644764383], [129.18774883885578, -15.189398344694135], [129.18662872891719, -15.173898724582063], [129.19960834814017, -15.146669354380842], [129.1956385283787, -15.159289274473458], [129.23120828627415, -15.175919554587196], [129.21548824720202, -15.153829854429272], [129.2380977758611, -15.128726664243874], [129.2494173751905, -15.091521663972891], [129.23649757594904, -15.067775883801403], [129.25604748479861, -15.033938933554287], [129.25634755478166, -15.061976923758017], [129.27820729349935, -15.02927891352092], [129.29297731263173, -15.041748993613103], [129.30162722212512, -15.036518963576407], [129.23349738611773, -15.008278803369528], [129.228436666386, -14.83935863214235], [129.48248646161497, -14.941045752982141], [129.52478678904893, -15.028075153661186], [129.6039115542876, -15.107992584348459], [129.56020215679922, -15.155122444631326], [129.56359241656392, -15.179902424816538], [129.58175207552563, -15.15416248465346], [129.67086164026477, -15.148532634754142], [129.6827714395971, -15.129752694638453]]], [[[136.94146358370932, -15.73978906672854], [136.93929344559953, -15.69009886625972], [136.91901356710983, -15.681949035522054], [136.94000340576446, -15.684228816236427], [136.96103298606312, -15.640088366583175], [136.99073278311252, -15.67286818783599], [136.97677280531798, -15.634458187062826], [136.99997253433932, -15.622847887745236], [136.9913824462209, -15.584447807150953], [137.0088623350949, -15.58671760775401], [137.03202231202079, -15.633937548908634], [137.0651320002893, -15.62683707996675], [137.08167197825597, -15.65575698075682], [137.07344242550718, -15.745837421198988], [137.1061323325641, -15.772517142519195], [137.097722621645, -15.812037472549902], [137.07496301179899, -15.846137932051933], [137.03985322432138, -15.835508310782808], [137.03566302592193, -15.798018160342394], [136.99460330855874, -15.794038678933312], [136.9696733316721, -15.749078767741638], [136.97838307244962, -15.712408477739356], [136.96386330268209, -15.730548747400016], [136.95431333398062, -15.710218776919689], [136.94146358370932, -15.73978906672854]]], [[[137.10584216350063, -15.747117012306246], [137.10297224354736, -15.750627042236962], [137.10257216363343, -15.748917052209714], [137.10584216350063, -15.747117012306246]]], [[[137.1035521540782, -15.734976982131478], [137.102782144047, -15.737127012122553], [137.10244211413914, -15.735147012095188], [137.1035521540782, -15.734976982131478]]], [[[137.1026221342143, -15.732766992082261], [137.10133211426987, -15.73338702204347], [137.10157213430054, -15.732137012041616], [137.1026221342143, -15.732766992082261]]], [[[137.08109191849002, -15.650226960692969], [137.08528189823835, -15.650226910834682], [137.0789919985877, -15.651017010628289], [137.08109191849002, -15.650226960692969]]], [[[137.07620230936098, -15.634187280399368], [137.07934228905881, -15.63734726053078], [137.075962319221, -15.638477260425582], [137.07620230936098, -15.634187280399368]]], [[[137.07239316134462, -15.863078052100393], [137.06772316184166, -15.857198081895659], [137.07449311151805, -15.854717992104591], [137.07239316134462, -15.863078052100393]]], [[[136.97075138406785, -14.260166255833418], [136.98361438349, -14.25690925623484], [136.98471335327164, -14.261462256308102], [136.97075138406785, -14.260166255833418]]], [[[136.98193262629658, -15.59821798694538], [136.97877271618088, -15.606798046908494], [136.97598269654083, -15.601368056772003], [136.98193262629658, -15.59821798694538]]], [[[136.9712829151223, -15.649248296997904], [136.97547340485414, -15.649708257141342], [136.97512286478317, -15.65229827715034], [136.9712829151223, -15.649248296997904]]], [[[136.96243536508388, -14.243861265425934], [136.96908836482325, -14.241091255624474], [136.97149937457138, -14.244596245732808], [136.96243536508388, -14.243861265425934]]], [[[136.95541637617677, -14.223316255027587], [136.96460237564898, -14.224326255340435], [136.95874236582011, -14.22843126517909], [136.95541637617677, -14.223316255027587]]], [[[136.92675740766674, -13.64654224942567], [136.9544983869304, -13.62691325018348], [136.9607383966928, -13.624596250371344], [136.96365339641565, -13.628312250497952], [136.92675740766674, -13.64654224942567]]], [[[136.9546533436874, -14.295921255587213], [136.96121535337704, -14.29466925579478], [136.9635953730503, -14.300353245919554], [136.9546533436874, -14.295921255587213]]], [[[136.43613913474843, -13.893488815747036], [136.42258044797123, -13.815629194703583], [136.49505841340803, -13.84021923714662], [136.530837033356, -13.785028437819818], [136.55223639110608, -13.819807998770024], [136.57503039065242, -13.797687239308575], [136.60095341903744, -13.805925250192338], [136.5941052100171, -13.787017709823978], [136.6314713980103, -13.789238251024143], [136.57504440415136, -13.691435238454135], [136.63626140111333, -13.68834125036377], [136.617783381508, -13.705043229912626], [136.63148640030514, -13.720083230467903], [136.67546140862336, -13.702720241726853], [136.6785283992054, -13.68056723164623], [136.69462639935495, -13.651434251925734], [136.7312473871037, -13.662738253190922], [136.72032239584482, -13.716885253276534], [136.68113737718488, -13.737058242184638], [136.6970623250973, -13.77490660299858], [136.73536082325234, -13.770946024195437], [136.71250175366558, -13.793796283645358], [136.7268604512608, -13.843185514504158], [136.8281361957722, -13.849853767834565], [136.8372867069163, -13.802424247750261], [136.79700775792264, -13.834174476696345], [136.83938684875451, -13.74539451735865], [136.9052248447203, -13.764113579666144], [136.924414542267, -13.806513170640557], [136.85781401207254, -13.912822459310943], [136.8125958747315, -13.904123307766369], [136.77089732531653, -13.951113216793006], [136.76432937369145, -14.00924325704879], [136.80684037111675, -14.019060238505343], [136.80636737050716, -14.037674258639885], [136.7590193926564, -14.048059247189723], [136.75171037170094, -14.08769424727276], [136.72046137394773, -14.070235256126194], [136.69880336333117, -14.122692245853175], [136.710742370908, -14.175732246662443], [136.76298736740262, -14.196717238513946], [136.78793537633172, -14.188942249259107], [136.77630837845396, -14.144831248527488], [136.8638323714872, -14.211733251916229], [136.89576838012732, -14.201565242882655], [136.91384938138236, -14.137371262960906], [136.92730736970466, -14.165085263628276], [136.96319635777508, -14.165502254819659], [136.93336537800124, -14.2048322541487], [136.95938236520553, -14.245075245334428], [136.93968236570174, -14.261236254811985], [136.96312134362663, -14.284573245776702], [136.9339303651973, -14.284649264810309], [136.95073134361448, -14.304085255522965], [136.91270937632044, -14.285249254114444], [136.8894213567744, -14.308436253534353], [136.85742336953027, -14.278595252244509], [136.81373839132988, -14.294810260948976], [136.80565137262423, -14.26971724048409], [136.75384736577732, -14.259042238719791], [136.64882238016878, -14.29677724565534], [136.6289103922576, -14.266434244778628], [136.49159839059664, -14.237829250229876], [136.43735599486487, -14.19628626821316], [136.32470863931277, -14.24609746515569], [136.32446895037467, -14.213307714886007], [136.41141705712343, -14.16947686719771], [136.44261659694962, -14.123456837792116], [136.40815958353866, -13.976318255548918], [136.43613913474843, -13.893488815747036]]], [[[136.95968274813336, -15.583968116089757], [136.96271271781995, -15.587698086220449], [136.9615427878541, -15.588708116189565], [136.95968274813336, -15.583968116089757]]], [[[136.96031364091976, -15.786219097726228], [136.95798363105303, -15.786449137650475], [136.9587936710561, -15.784979107665714], [136.96031364091976, -15.786219097726228]]], [[[136.95546236138367, -15.499267625272177], [136.95580240119966, -15.50389765532051], [136.94951246160988, -15.502867725103133], [136.95546236138367, -15.499267625272177]]], [[[136.9510533520436, -14.348648255892503], [136.95187635182143, -14.353740255960773], [136.94781835206476, -14.353070255820896], [136.9510533520436, -14.348648255892503]]], [[[136.94879362256088, -15.75966909713089], [136.94003376280804, -15.76767926690367], [136.94715364267233, -15.759329117073644], [136.94879362256088, -15.75966909713089]]], [[[136.92889737313033, -14.351924255185597], [136.9401583525928, -14.349832255541184], [136.94234036246021, -14.350242255616719], [136.92889737313033, -14.351924255185597]]], [[[136.9265443869815, -13.66672923958176], [136.93725538657964, -13.662511239901162], [136.93661539654286, -13.664522249896278], [136.9265443869815, -13.66672923958176]]], [[[136.9335331981146, -15.628768605578685], [136.9289832184357, -15.627408655416897], [136.9346931680807, -15.627758595609105], [136.9335331981146, -15.628768605578685]]], [[[136.9213326735361, -15.495728024111152], [136.9177226737309, -15.49628807399611], [136.91912267378294, -15.49244804401176], [136.9213326735361, -15.495728024111152]]], [[[136.91156037800496, -13.659249249027669], [136.89779739803217, -13.678922258733992], [136.88696338869326, -13.675817258353204], [136.91156037800496, -13.659249249027669]]], [[[136.9093554260162, -12.256438227581153], [136.91059142585596, -12.259531247646834], [136.90770744607477, -12.25688923753081], [136.9093554260162, -12.256438227581153]]], [[[136.9075533702909, -15.61123878457814], [136.91046337005272, -15.613048764688838], [136.9035834103659, -15.615868834483884], [136.9075533702909, -15.61123878457814]]], [[[136.8677037328395, -15.606669153227381], [136.8815337609917, -15.635709193914586], [136.84549414275537, -15.647179652821151], [136.85170396316735, -15.624719412845696], [136.82956404473336, -15.617909672065599], [136.85584371441934, -15.58180914263909], [136.8415735666487, -15.542369161855996], [136.8806630656061, -15.505608552846851], [136.87375328509188, -15.532028752830392], [136.9049032911929, -15.590118684321848], [136.8677037328395, -15.606669153227381]]], [[[136.8995139174148, -15.70665941507424], [136.8971839375319, -15.707329445002621], [136.89858389751072, -15.705529415034498], [136.8995139174148, -15.70665941507424]]], [[[136.88481318426216, -15.536898643233581], [136.88399321434258, -15.535998673199371], [136.8851632242571, -15.536448643241531], [136.88481318426216, -15.536898643233581]]], [[[136.88177411818512, -15.715219664557099], [136.88398411792858, -15.718719674657885], [136.88072415813363, -15.71848970454858], [136.88177411818512, -15.715219664557099]]], [[[136.86920846337216, -12.091475244926569], [136.86803443350937, -12.088936224867643], [136.86925445345045, -12.089090244908656], [136.86920846337216, -12.091475244926569]]], [[[136.84875374514516, -15.573169182337374], [136.8509837050426, -15.572289162403527], [136.85084321500275, -15.573669242409935], [136.84875374514516, -15.573169182337374]]], [[[136.73461466940532, -15.647671119214252], [136.82809430328643, -15.661949982368862], [136.83715440185753, -15.687260032867485], [136.78782461485073, -15.686730641251906], [136.80444474255924, -15.723800662089191], [136.7384652352098, -15.762651770254843], [136.73461466940532, -15.647671119214252]]], [[[136.8227754696601, -11.664799229943814], [136.83597445891428, -11.67045324041733], [136.809912469885, -11.67436822960596], [136.8227754696601, -11.664799229943814]]], [[[136.83345432289647, -15.663879922559751], [136.83083428316965, -15.660569932447547], [136.83497426282872, -15.663199892604117], [136.83345432289647, -15.663879922559751]]], [[[136.82763389599424, -15.585039521740116], [136.79689399824673, -15.573129850641278], [136.77357414945112, -15.578620209926287], [136.83397372664584, -15.555459321711526], [136.82763389599424, -15.585039521740116]]], [[[136.83116457122972, -15.715600292897298], [136.82777459133234, -15.718530342809672], [136.83069459127384, -15.715150302878314], [136.83116457122972, -15.715600292897298]]], [[[136.82962463079477, -15.730730412967526], [136.80105477264254, -15.727300732006494], [136.81878468169103, -15.723830502557838], [136.82962463079477, -15.730730412967526]]], [[[136.79944644508814, -12.132280232995084], [136.79699043665914, -12.088422242559158], [136.82527943589318, -12.074030243357035], [136.8263784437267, -12.13731622390741], [136.79944644508814, -12.132280232995084]]], [[[136.81752536996197, -14.32878025134545], [136.82303135942362, -14.335789251581197], [136.82210235940124, -14.337909241567969], [136.81752536996197, -14.32878025134545]]], [[[136.7913341671151, -15.615360190797048], [136.79126408797674, -15.590630040597489], [136.8193340458154, -15.604449741623576], [136.7913341671151, -15.615360190797048]]], [[[136.79845491210523, -15.747280882080958], [136.7979949022075, -15.745140892048903], [136.79962488209316, -15.745590872105646], [136.79845491210523, -15.747280882080958]]], [[[136.7936113793905, -14.090263248649123], [136.79478737903682, -14.098816238756127], [136.79402437901814, -14.100553238745352], [136.7936113793905, -14.090263248649123]]], [[[136.7867824486084, -12.043375241863528], [136.78615643868662, -12.041850231830946], [136.78765245860322, -12.042382231883497], [136.7867824486084, -12.043375241863528]]], [[[136.77405503327574, -15.756161271357309], [136.77254502343385, -15.754241261292934], [136.77289502342822, -15.753791251300727], [136.77405503327574, -15.756161271357309]]], [[[136.4740224812361, -11.449144217170005], [136.50264848128734, -11.410339207738986], [136.4998254714711, -11.40821320763434], [136.49488147169242, -11.40765021747684], [136.4982544720662, -11.391521217450032], [136.57747648074366, -11.331412219424983], [136.62613547280162, -11.20626720993222], [136.705862490774, -11.170139232160077], [136.6942494729062, -11.11894521137344], [136.72220347208903, -11.109884232188817], [136.70024649351146, -11.093035221352572], [136.73740050252923, -11.077972232413225], [136.73439447317688, -11.061819212185403], [136.72955749334253, -11.062607222037492], [136.71332247424195, -11.054729221455869], [136.76021146357937, -11.018436212656695], [136.7198534894115, -11.194679222805693], [136.66705949054457, -11.225087221377008], [136.68440745905616, -11.249336232124325], [136.62602849028661, -11.284277220564363], [136.62737248879336, -11.32879323096923], [136.58881348860672, -11.383470220203483], [136.49323349005215, -11.461417207862912], [136.4740224812361, -11.449144217170005]]], [[[136.75101645629525, -12.160586231666016], [136.7514124462293, -12.162045231690577], [136.74936844631787, -12.162112231625535], [136.75101645629525, -12.160586231666016]]], [[[136.74968446425117, -11.010583222255653], [136.74716549401916, -11.020690222257631], [136.7364844948834, -11.007128221805662], [136.74968446425117, -11.010583222255653]]], [[[136.7381908959543, -13.686346393604536], [136.74564058533804, -13.69330622390044], [136.73349100588106, -13.695686413528687], [136.7381908959543, -13.686346393604536]]], [[[136.72899508743845, -15.714631539566172], [136.73179500726127, -15.714861509658483], [136.7312150872536, -15.716101529649617], [136.72899508743845, -15.714631539566172]]], [[[136.72808466975948, -15.648791229012172], [136.73179470924063, -15.657381219200492], [136.72585477967246, -15.6552212689914], [136.72808466975948, -15.648791229012172]]], [[[136.72546847337222, -11.066649231940069], [136.7310844630696, -11.069105212139238], [136.72252346338414, -11.069854221872355], [136.72546847337222, -11.066649231940069]]], [[[136.72932142332414, -12.881909246820415], [136.72793343316934, -12.888542236829617], [136.7239804134438, -12.885960246682032], [136.72932142332414, -12.881909246820415]]], [[[136.7227075029777, -11.082072221977928], [136.7270095029538, -11.077585232078462], [136.72862648279923, -11.080351222152611], [136.7227075029777, -11.082072221977928]]], [[[136.71888528661276, -15.75640192957241], [136.7211952962042, -15.764201999709073], [136.7173653167129, -15.756171959521534], [136.71888528661276, -15.75640192957241]]], [[[136.71941454150405, -15.613191158448586], [136.7161645418271, -15.609461188314036], [136.72058451146478, -15.612291128479157], [136.71941454150405, -15.613191158448586]]], [[[136.70469945657499, -12.21454723062246], [136.71179545632754, -12.212438230831776], [136.70142044617546, -12.231116240652408], [136.70469945657499, -12.21454723062246]]], [[[136.68635265044932, -13.63132736149922], [136.70034211020405, -13.617327201833637], [136.7018021895394, -13.634967162022582], [136.68635265044932, -13.63132736149922]]], [[[136.69950846600946, -12.238751190653433], [136.6973284261331, -12.23796120057754], [136.700078416006, -12.238081150666165], [136.69950846600946, -12.238751190653433]]], [[[136.68904647244904, -11.139365221374835], [136.68597948279321, -11.13254723122193], [136.6971184821491, -11.138681221625546], [136.68904647244904, -11.139365221374835]]], [[[136.64283047157613, -11.8394962256117], [136.688484460191, -11.82182422691498], [136.66793145054896, -11.837881226393028], [136.64592746140966, -11.840515225717857], [136.64283047157613, -11.8394962256117]]], [[[136.68695647973237, -11.225406222010115], [136.68553746973961, -11.226940221977594], [136.68524746983803, -11.22427522194667], [136.68695647973237, -11.225406222010115]]], [[[136.68118440065064, -13.633196241349246], [136.68614339998757, -13.645474251606558], [136.6802833902257, -13.647307251434215], [136.68118440065064, -13.633196241349246]]], [[[136.68271447969605, -11.231776211927478], [136.68170747976967, -11.230761211887273], [136.68303447971283, -11.23086222193018], [136.68271447969605, -11.231776211927478]]], [[[136.65960841020126, -13.67977525103681], [136.68231340974592, -13.658572251589804], [136.6654684097364, -13.684715251263217], [136.65960841020126, -13.67977525103681]]], [[[136.64680479608867, -15.60648238606415], [136.6694646552752, -15.590491816661762], [136.68095467394912, -15.609161747178973], [136.64680479608867, -15.60648238606415]]], [[[136.6766846148383, -15.590621686894261], [136.67797459479553, -15.589611666927587], [136.67855443474136, -15.590181256950729], [136.6766846148383, -15.590621686894261]]], [[[136.66804241662896, -12.870267224769606], [136.67655742596875, -12.877972235102856], [136.66723441661367, -12.8718962247571], [136.66804241662896, -12.870267224769606]]], [[[136.67480843716933, -12.237121469854186], [136.67630844709095, -12.2374614599046], [136.6761884670888, -12.237691449902655], [136.67480843716933, -12.237121469854186]]], [[[136.6743385769493, -12.244461489898825], [136.6750285369591, -12.243221469910678], [136.67456852693903, -12.244461469906124], [136.6743385769493, -12.244461489898825]]], [[[136.67458443894137, -12.183450229411436], [136.67247944907027, -12.182379229335892], [136.67280042907538, -12.181787229341278], [136.67458443894137, -12.183450229411436]]], [[[136.6574923694554, -14.304085245990228], [136.66098636906003, -14.310242246151068], [136.66022238905748, -14.311550256137203], [136.6574923694554, -14.304085245990228]]], [[[136.6550247064179, -15.582331966134518], [136.6567546960988, -15.588662026240275], [136.65512471617362, -15.58933207619348], [136.6550247064179, -15.582331966134518]]], [[[136.65471040130657, -13.65409323067405], [136.64885142122085, -13.665685240581135], [136.64352640178942, -13.656772240340144], [136.65471040130657, -13.65409323067405]]], [[[136.63211241181133, -13.673713240114342], [136.64030542196747, -13.656370230234621], [136.64267138144376, -13.668496240407428], [136.63211241181133, -13.673713240114342]]], [[[136.63058242859196, -12.864809223537376], [136.61799343940743, -12.858217233086153], [136.62664542912228, -12.854367233328412], [136.63058242859196, -12.864809223537376]]], [[[136.62338438235165, -13.670897249815027], [136.62245440261822, -13.664287229732347], [136.62980838234606, -13.661144249940055], [136.62338438235165, -13.670897249815027]]], [[[136.5119724682917, -11.805612231238904], [136.53418844877368, -11.76085422156591], [136.55903045704713, -11.78155322250848], [136.5874414770311, -11.744409223095712], [136.62787745542474, -11.740814224337655], [136.57900446594556, -11.789209223195336], [136.5119724682917, -11.805612231238904]]], [[[136.62710738265955, -13.655854249811835], [136.62756538256255, -13.658074249844232], [136.62677239267126, -13.656017229802531], [136.62710738265955, -13.655854249811835]]], [[[136.62439240228414, -13.671377249850824], [136.6262683922078, -13.670781229905465], [136.623339412309, -13.672253239824526], [136.62439240228414, -13.671377249850824]]], [[[136.61017040309702, -13.66882022938012], [136.61126941308427, -13.667504229404274], [136.61050740307832, -13.668864239391128], [136.61017040309702, -13.66882022938012]]], [[[136.6104250310671, -15.523821754246526], [136.5896951882037, -15.645303584555625], [136.494756503976, -15.643534371550892], [136.52533591590222, -15.530932881614246], [136.5786552933972, -15.510861913135745], [136.6104250310671, -15.523821754246526]]], [[[136.60345640343394, -13.6690282491696], [136.61001841326097, -13.664097239337277], [136.60071139348815, -13.671642239103942], [136.60345640343394, -13.6690282491696]]], [[[136.6083863932399, -13.667261239311165], [136.6085073831837, -13.668773239327157], [136.6076224032305, -13.668729249298833], [136.6083863932399, -13.667261239311165]]], [[[136.58014572498584, -13.658148508346803], [136.6027951038351, -13.657908249059176], [136.57600581488666, -13.667598508292542], [136.58014572498584, -13.658148508346803]]], [[[136.59477532367353, -13.675238248945517], [136.59161537369852, -13.67938825887924], [136.5915454038624, -13.674528278837911], [136.59477532367353, -13.675238248945517]]], [[[136.58507041259475, -13.72304624902428], [136.57246739304227, -13.729150248676547], [136.56949140336954, -13.723859248540364], [136.58507041259475, -13.72304624902428]]], [[[136.56997045388331, -11.86518223352959], [136.5800104733429, -11.868500223870855], [136.57026147374108, -11.869202223571337], [136.56997045388331, -11.86518223352959]]], [[[136.5720958215929, -13.773748029023652], [136.5789064010786, -13.77867222927766], [136.57429842103693, -13.78716824920092], [136.5720958215929, -13.773748029023652]]], [[[136.54721439442432, -13.726653247863316], [136.54472739446098, -13.729439237807764], [136.54451241447208, -13.72943723780101], [136.54721439442432, -13.726653247863316]]], [[[136.5114934165019, -13.719341226687288], [136.5098377472672, -13.698499166468038], [136.53093711602168, -13.703448877166903], [136.54140038325357, -13.771487238041678], [136.5191073937381, -13.791904247508391], [136.4663233982335, -13.737610235429235], [136.5114934165019, -13.719341226687288]]], [[[136.5316044061267, -13.699192237153541], [136.53979840610916, -13.686882237310993], [136.53798139580203, -13.699105227352424], [136.5316044061267, -13.699192237153541]]], [[[136.51442635696895, -15.518472261172587], [136.51231636696693, -15.522303261136884], [136.50844633695326, -15.529633251073864], [136.5076363371109, -15.526353261022383], [136.51442635696895, -15.518472261172587]]], [[[136.4643654891807, -11.841930230061148], [136.49764545926922, -11.79423922070248], [136.46818144702652, -11.904504220686317], [136.4749864781934, -11.85858023052388], [136.4643654891807, -11.841930230061148]]], [[[136.3742935016871, -11.566588215069391], [136.36660247302, -11.534234204573108], [136.3828374919745, -11.54598921516227], [136.47358047068536, -11.46710022730228], [136.45031145959348, -11.53215021711431], [136.3742935016871, -11.566588215069391]]], [[[136.4358934781633, -11.912810219759802], [136.45826246716368, -11.913723210455283], [136.43432145801853, -11.919537229766052], [136.4358934781633, -11.912810219759802]]], [[[136.4084274811934, -11.854525208445509], [136.4312244689541, -11.894224209465795], [136.38352547060887, -11.907311228112828], [136.3668784814322, -11.904087207579808], [136.4102594603517, -11.87870622869755], [136.4084274811934, -11.854525208445509]]], [[[136.39915091514987, -13.630101022492562], [136.41777044445158, -13.622250783001984], [136.4200603840073, -13.632420733154236], [136.39915091514987, -13.630101022492562]]], [[[136.39209440329822, -13.699045232829802], [136.3842814033037, -13.711396232689383], [136.38025132405082, -13.694550822430616], [136.39209440329822, -13.699045232829802]]], [[[136.3713864365008, -13.318942229140177], [136.38315140609686, -13.3132852194545], [136.38261741603492, -13.316056229460461], [136.3713864365008, -13.318942229140177]]], [[[136.37906339359702, -13.710619232523262], [136.38080342312716, -13.722486222671856], [136.3795814031587, -13.723465232642274], [136.37906339359702, -13.710619232523262]]], [[[136.31208348345396, -11.59361920340471], [136.29546748457764, -11.57985922279281], [136.3421124722985, -11.590224214284492], [136.36837247221217, -11.55772021481743], [136.37664249095755, -11.58675620530446], [136.3325914816673, -11.623361214265062], [136.29651948261954, -11.641694213325579], [136.27251847442773, -11.615932222395985], [136.26314946337664, -11.6628472024953], [136.22398048534703, -11.652645211243076], [136.1591464768532, -11.693339219650852], [136.18032549642413, -11.677894210151635], [136.16621149803805, -11.6444812194641], [136.23077050527036, -11.645785211389812], [136.223110506434, -11.618365210939622], [136.2434204855409, -11.619585211554993], [136.2644454761136, -11.572242211800114], [136.28077247442147, -11.604880212554045], [136.31208348345396, -11.59361920340471]]], [[[136.36955112991424, -13.840899913277754], [136.33601175155093, -13.844300272281158], [136.33584177188067, -13.834240342195297], [136.36709147098296, -13.811530172966846], [136.36955112991424, -13.840899913277754]]], [[[136.3238184814365, -11.963852216757981], [136.3327144816253, -11.945372216877512], [136.33553848101988, -11.960816217088045], [136.3238184814365, -11.963852216757981]]], [[[136.3228274714353, -11.965278216739565], [136.31489346182966, -11.963736226487377], [136.31554845184158, -11.962435206496624], [136.3228274714353, -11.965278216739565]]], [[[136.32097241048595, -13.587810239765451], [136.3177694305298, -13.59156723969837], [136.31853242060987, -13.587819229691435], [136.32097241048595, -13.587810239765451]]], [[[136.31921046114817, -11.979555216745801], [136.32082847095424, -11.983506206826673], [136.31663247115554, -11.982934206695266], [136.31921046114817, -11.979555216745801]]], [[[136.14883346624444, -12.056937222285239], [136.13326946787856, -12.02572320157478], [136.15989548625348, -12.040642212480105], [136.17169046655908, -12.013628222610544], [136.19268646519495, -12.02807822334938], [136.20286448572537, -11.996195213393982], [136.21797048383203, -12.03626521416723], [136.278317473014, -11.97703522549341], [136.3135654815611, -11.97421920653212], [136.30863583057933, -12.01267578669452], [136.1936784636489, -12.077117203775014], [136.12818946662296, -12.074457221818829], [136.1184994877483, -12.05145021134842], [136.14883346624444, -12.056937222285239]]], [[[136.3019164177834, -13.70376722011817], [136.29936740791067, -13.703887230041923], [136.3002524179203, -13.70214623005476], [136.3019164177834, -13.70376722011817]]], [[[136.19113428130387, -13.773562257347464], [136.1463384233951, -13.780908226074512], [136.16786842060944, -13.83456623714315], [136.10649841433428, -13.817378235189134], [136.11292504665875, -13.731253124689315], [136.17536143295496, -13.746765236662927], [136.19101540452138, -13.670635236519223], [136.24225443201485, -13.666756228021516], [136.29300442810805, -13.707990239882221], [136.30165741676672, -13.736261230371007], [136.25301240885946, -13.749482239008236], [136.284063426048, -13.787665240250817], [136.25969540739416, -13.785014229494273], [136.24826740594432, -13.849849229669879], [136.20027840827595, -13.855240228274557], [136.19113428130387, -13.773562257347464]]], [[[136.29781140797476, -13.704391229998846], [136.2937674281857, -13.704296229875677], [136.29797941802994, -13.702375229987764], [136.29781140797476, -13.704391229998846]]], [[[136.2926384057856, -13.781925230464145], [136.29033441577053, -13.786168240428452], [136.28836641596158, -13.783354220346354], [136.2926384057856, -13.781925230464145]]], [[[136.26917041283264, -13.597028228272078], [136.27328943281506, -13.590928228347334], [136.27553243260863, -13.593852228438466], [136.26917041283264, -13.597028228272078]]], [[[136.24396241835518, -13.461926226429279], [136.24881443889436, -13.436945236374438], [136.2724504168672, -13.463631227300073], [136.24396241835518, -13.461926226429279]]], [[[136.26505141563965, -13.831807240030733], [136.26715640523926, -13.841018220168026], [136.26406040560525, -13.83453024002268], [136.26505141563965, -13.831807240030733]]], [[[136.22531642497552, -13.599963216977738], [136.24564141443503, -13.584179227460883], [136.2477174238457, -13.599578237646808], [136.22531642497552, -13.599963216977738]]], [[[136.22821544881154, -13.472688236043389], [136.22993941871468, -13.473006226097588], [136.22922244871677, -13.474095226084845], [136.22821544881154, -13.472688236043389]]], [[[136.22499542003618, -13.438701235674133], [136.22989342966866, -13.442582215851996], [136.22311943007068, -13.44061422563333], [136.22499542003618, -13.438701235674133]]], [[[136.2043274973305, -11.614923210353366], [136.20763848639237, -11.641054200663236], [136.19282148785837, -11.613505200000592], [136.2043274973305, -11.614923210353366]]], [[[136.14981743149022, -13.513860224038067], [136.12134443389482, -13.482581212945586], [136.1414544448242, -13.41961822303476], [136.1272184168948, -13.375583222260909], [136.0921844491848, -13.358002211088548], [136.15065543542337, -13.38528921303171], [136.205083430639, -13.451467235181248], [136.16509041159924, -13.485415234262911], [136.14174443322665, -13.470882223454458], [136.16809743068063, -13.510138224550479], [136.14081445037698, -13.56461822417839], [136.126730451747, -13.543418223592177], [136.14981743149022, -13.513860224038067]]], [[[136.18288342517369, -13.663087236216414], [136.18279141504325, -13.667426226248441], [136.1798924352997, -13.663964226134382], [136.18288342517369, -13.663087236216414]]], [[[136.17414847548798, -12.371934225575574], [136.16786247575013, -12.372711225395692], [136.1746834555285, -12.369818215574355], [136.17414847548798, -12.371934225575574]]], [[[136.17066143031425, -13.839377237264719], [136.1682194404766, -13.838246237183046], [136.17099742033733, -13.83807421726428], [136.17066143031425, -13.839377237264719]]], [[[136.15890447201787, -12.180931213583502], [136.15310648235865, -12.178245213390605], [136.15751546219389, -12.177196213512328], [136.15890447201787, -12.180931213583502]]], [[[136.120757484103, -12.168347212358123], [136.15058846194643, -12.195451213455149], [136.10441548415466, -12.19070720205897], [136.120757484103, -12.168347212358123]]], [[[136.13862347807256, -11.681858208953486], [136.1415844667967, -11.719826199347633], [136.12800347731442, -11.721837208964644], [136.13862347807256, -11.681858208953486]]], [[[136.10560350317934, -11.558784196989462], [136.12093850266805, -11.554437197403457], [136.1083955027982, -11.567560207142147], [136.10560350317934, -11.558784196989462]]], [[[136.10901543579428, -13.441032232249155], [136.10616043576434, -13.446680222210391], [136.10570444591735, -13.442446222163033], [136.10901543579428, -13.441032232249155]]], [[[136.07634544609712, -13.484839231640596], [136.08220545705774, -13.443803211483552], [136.10890844505465, -13.465272222440323], [136.07634544609712, -13.484839231640596]]], [[[136.07501047803765, -11.772980217827573], [136.07647547858429, -11.752684217706308], [136.1025984877371, -11.74373520839692], [136.07501047803765, -11.772980217827573]]], [[[136.0987994879767, -12.072626220941805], [136.09756348816245, -12.068285210870597], [136.09910546811915, -12.067464220909107], [136.0987994879767, -12.072626220941805]]], [[[136.09473145091746, -13.297278220676315], [136.08156346109828, -13.312752230414079], [136.077672451752, -13.297684220179207], [136.09473145091746, -13.297278220676315]]], [[[136.07525448343455, -11.592702206377762], [136.09025350306473, -11.584017196744929], [136.08059549283632, -11.605160206634128], [136.07525448343455, -11.592702206377762]]], [[[136.08832576550256, -13.810113134596259], [136.0856657856063, -13.811233144527069], [136.08902575550434, -13.808873134606914], [136.08832576550256, -13.810113134596259]]], [[[136.0726074476059, -13.441667221185151], [136.07102144753935, -13.44645423117707], [136.07083745769444, -13.441681231133433], [136.0726074476059, -13.441667221185151]]], [[[136.04358046353192, -12.301992211180666], [136.07057348307924, -12.276551221761553], [136.0492404729879, -12.311572221422383], [136.04358046353192, -12.301992211180666]]], [[[136.05387651289, -11.641011206146452], [136.0678234824421, -11.636285216513716], [136.05946250244853, -11.647878196364244], [136.05387651289, -11.641011206146452]]], [[[136.05513644173348, -13.335045229819649], [136.0526944418714, -13.334511229744074], [136.05490744178275, -13.333803209803007], [136.05513644173348, -13.335045229819649]]], [[[135.98774650359695, -11.711555194804923], [135.9531395053919, -11.700662213724204], [135.95306350602002, -11.679448203550827], [136.0493144829722, -11.644715196043943], [135.98774650359695, -11.711555194804923]]], [[[136.04064849920633, -11.783148206910758], [136.0414884785706, -11.803217207097171], [136.0278164888772, -11.812645216777156], [136.04064849920633, -11.783148206910758]]], [[[136.02934246842995, -12.16001319962338], [136.0259404902626, -12.103825209071875], [136.03521846016744, -12.09327021925568], [136.02934246842995, -12.16001319962338]]], [[[136.02780246808092, -12.173964199691193], [136.02027948775205, -12.1961872196524], [136.02639848836407, -12.166599199591156], [136.02780246808092, -12.173964199691193]]], [[[136.02112046946883, -12.471391221892954], [136.02455347921185, -12.474696212019051], [136.01960947924502, -12.481166211927839], [136.02112046946883, -12.471391221892954]]], [[[136.0160534772889, -12.218002209705874], [136.01605347735847, -12.215676209687134], [136.01773148747498, -12.209265219684028], [136.0160534772889, -12.218002209705874]]], [[[135.95175249943654, -11.904653205329922], [135.94169649059353, -11.88021919484529], [135.982940509749, -11.848400195771033], [135.99220248927733, -11.850811216056996], [135.95175249943654, -11.904653205329922]]], [[[135.94113049397583, -11.766175203909427], [135.9534604844257, -11.732990203994246], [135.97718749341863, -11.732795194672887], [135.94113049397583, -11.766175203909427]]], [[[135.97234243609404, -13.327241227354234], [135.96204344652614, -13.329933217078962], [135.96190543679512, -13.32120520700509], [135.97234243609404, -13.327241227354234]]], [[[135.56622849155508, -12.071721195955083], [135.59401451371068, -11.950618205734441], [135.63100051141095, -11.974900196934236], [135.66551549098588, -11.936413197568093], [135.73361448792903, -11.939375199467419], [135.83519150642502, -11.838348201488648], [135.87086551500462, -11.834229192461244], [135.88931348509652, -11.803829202738488], [135.86613551667722, -11.783775201921014], [135.8757484870555, -11.756628211973927], [135.92834450424803, -11.775560203620216], [135.93840051296723, -11.80443520414004], [135.7978224744099, -11.964221201454034], [135.74264849650947, -11.975218190005954], [135.7358885160405, -12.001989190033825], [135.6366015099445, -12.018285187435316], [135.56622849155508, -12.071721195955083]]], [[[135.87950844800503, -14.423062103437047], [135.88215838802165, -14.417682123469909], [135.88118839795902, -14.421532123472833], [135.87950844800503, -14.423062103437047]]], [[[135.87851842800669, -14.424812113422709], [135.87724847805248, -14.425602143392748], [135.87816846804955, -14.424022123406445], [135.87851842800669, -14.424812113422709]]], [[[135.86833860820755, -14.436702173226957], [135.87597849803376, -14.428542143379902], [135.87030862810974, -14.4363621432804], [135.86833860820755, -14.436702173226957]]], [[[135.8383094160792, -14.228023230713397], [135.8385394361106, -14.226553220708222], [135.83911942605252, -14.22745322073183], [135.8383094160792, -14.228023230713397]]], [[[135.78111940343516, -15.094460055972924], [135.78729936297728, -15.09781999617375], [135.7803293932716, -15.101470006006132], [135.78111940343516, -15.094460055972924]]], [[[135.68692079448914, -14.90376166182924], [135.72589034430536, -14.834751762367743], [135.7593299720281, -14.84764151340588], [135.76409986015048, -14.90176130396853], [135.73212024225558, -14.892181482996579], [135.7048305832094, -14.912561542396714], [135.68692079448914, -14.90376166182924]]], [[[135.7329304797933, -14.295073678282867], [135.7279405001996, -14.290443728106906], [135.7351304498824, -14.287973678287841], [135.7329304797933, -14.295073678282867]]], [[[135.60147190090296, -14.504233646310748], [135.630011579636, -14.493583547008747], [135.61204178991508, -14.51824356671115], [135.60147190090296, -14.504233646310748]]], [[[135.61170179942772, -14.535773556840743], [135.61042180954098, -14.534303546794032], [135.61124181951206, -14.533733556811978], [135.61170179942772, -14.535773556840743]]], [[[135.51680551413645, -12.057498194512979], [135.5154775042221, -12.056522194469618], [135.51823949410777, -12.056241194541288], [135.51680551413645, -12.057498194512979]]], [[[135.50632877568387, -12.01818251391764], [135.50678886550753, -12.023842493975309], [135.50483877572444, -12.019092513885138], [135.50632877568387, -12.01818251391764]]], [[[135.49963544148855, -14.681648214951021], [135.50459641118164, -14.682668215092745], [135.50465744113183, -14.684298215107274], [135.50068843136955, -14.683758214996065], [135.49963544148855, -14.681648214951021]]], [[[135.30771452212755, -11.72948317638603], [135.30904151206798, -11.729588186421152], [135.30815653209004, -11.73018318640305], [135.30771452212755, -11.72948317638603]]], [[[135.15225854954772, -11.699978192186707], [135.168341538853, -11.700288172594343], [135.16692154868366, -11.709143182629338], [135.15225854954772, -11.699978192186707]]], [[[135.05034751761207, -11.946739181614861], [135.05568753809192, -11.918788181524041], [135.12213852497655, -11.927016183244652], [135.0802075462484, -11.948900182372782], [135.05034751761207, -11.946739181614861]]], [[[134.98089052743228, -12.074520180925091], [134.99804052669285, -12.073654181338187], [135.00217652601006, -12.093351181596606], [134.98964852650968, -12.095629181307576], [134.98089052743228, -12.074520180925091]]], [[[134.90890053185674, -12.025245188783703], [134.95482753007113, -12.015538179819474], [134.99065552795776, -12.036589190861855], [134.9585055186376, -12.066111190311835], [134.90890053185674, -12.025245188783703]]], [[[134.94251552920443, -12.071799179968233], [134.95949751812006, -12.08494117048596], [134.95652250796988, -12.096173190502945], [134.94251552920443, -12.071799179968233]]], [[[134.92162552061288, -12.052538179308495], [134.93027751985753, -12.06740918963639], [134.91771955068037, -12.05677018924772], [134.92162552061288, -12.052538179308495]]], [[[134.9256275292129, -12.101444169794688], [134.90153051932043, -12.140214179520889], [134.86895354110513, -12.126959188632139], [134.84710252409286, -12.045342177460206], [134.90993753073587, -12.068383169152133], [134.9256275292129, -12.101444169794688]]], [[[134.83698553546836, -12.007628166918927], [134.86298652373495, -12.03135517772865], [134.82908152529112, -12.029052166901153], [134.83698553546836, -12.007628166918927]]], [[[134.7982755269176, -12.018238176084271], [134.82973754492357, -12.042836167026389], [134.83161451473242, -12.047234177106041], [134.7982755269176, -12.018238176084271]]], [[[134.66671081512936, -11.917559402209626], [134.66833082505036, -11.917899372249723], [134.66760079506446, -11.918649382238826], [134.66671081512936, -11.917559402209626]]], [[[134.21399056417454, -11.953457162486972], [134.21875155375417, -11.963125172663961], [134.20813154423914, -11.962332162433347], [134.21399056417454, -11.953457162486972]]], [[[134.21290757560715, -11.889865171961828], [134.2116865756171, -11.891861171951815], [134.21136555568535, -11.88937116192537], [134.21290757560715, -11.889865171961828]]], [[[134.16453755311477, -12.103320162629853], [134.18518257235831, -12.095681163002565], [134.17178558258, -12.113068162858541], [134.16453755311477, -12.103320162629853]]], [[[133.39937561847566, -11.489183143078261], [133.46675760609045, -11.464718144079313], [133.49121662404852, -11.519766134948823], [133.43596562662484, -11.506304153857748], [133.3835826080939, -11.547351133257031], [133.39937561847566, -11.489183143078261]]], [[[133.3516466079971, -11.62846614333529], [133.40807261637144, -11.585237133983481], [133.46562858379795, -11.592217155058592], [133.4814365926322, -11.618989145551206], [133.4463416241466, -11.617991144916964], [133.42053959473276, -11.646265144681221], [133.41361159540244, -11.625683154397791], [133.38759560635685, -11.634324154008171], [133.40169558526156, -11.661571154468943], [133.36910262628888, -11.682110154058826], [133.3516466079971, -11.62846614333529]]], [[[133.3136675989348, -11.667093142980974], [133.3223495886754, -11.66073915308082], [133.3206566186345, -11.667132143101625], [133.3136675989348, -11.667093142980974]]], [[[133.02518465364972, -10.911790132304827], [133.04340362299828, -10.907552142561716], [133.03754464318433, -10.910346132490137], [133.02518465364972, -10.911790132304827]]], [[[133.00484564160175, -11.088030133359155], [132.97802062338974, -11.044143132594112], [133.01700664143766, -11.06794514339489], [133.00484564160175, -11.088030133359155]]], [[[132.91419362439905, -11.142465142368327], [132.91866564377298, -11.170535132656171], [132.85703564663334, -11.148026121537285], [132.86358064649272, -11.139990131574075], [132.91419362439905, -11.142465142368327]]], [[[132.85672963822435, -11.046501120741572], [132.87244562738965, -11.05952113108189], [132.8526256481834, -11.059765120782748], [132.85672963822435, -11.046501120741572]]], [[[132.82557065020603, -10.99910813990199], [132.81931564092147, -10.968808129572018], [132.8310186404782, -10.967317129736154], [132.82557065020603, -10.99910813990199]]], [[[132.8280436300893, -11.0002691199482], [132.81627866020216, -11.023558119953059], [132.81810964026377, -11.014771119912053], [132.82566263015391, -11.002257129927905], [132.8280436300893, -11.0002691199482]]], [[[132.7801636160617, -11.390446132269348], [132.78068162628924, -11.3741311321502], [132.8007926551304, -11.395045142612698], [132.7801636160617, -11.390446132269348]]], [[[132.78503063698673, -11.316637121767773], [132.7822836471083, -11.316122141722907], [132.78574764696535, -11.316095131774226], [132.78503063698673, -11.316637121767773]]], [[[132.71979963009048, -11.289720120597238], [132.73275362962835, -11.284890120749099], [132.7312286595211, -11.296210130814757], [132.71979963009048, -11.289720120597238]]], [[[132.726422627057, -11.473369122120884], [132.72523265703612, -11.47808712214011], [132.72333965718795, -11.473291132075161], [132.726422627057, -11.473369122120884]]], [[[132.6474726641979, -11.213197128958795], [132.6698266437066, -11.184417119055302], [132.68243064313126, -11.188531129268691], [132.6474726641979, -11.213197128958795]]], [[[132.58488264773322, -11.145516137548645], [132.58659066722115, -11.1763371378118], [132.63154365523437, -11.186834128527261], [132.603298646165, -11.202270118247728], [132.61962662426876, -11.286827129134643], [132.5883316345565, -11.356564139234653], [132.47018264222436, -11.158074116069356], [132.5081466509044, -11.14191412645961], [132.51347065140368, -11.090888126136617], [132.4620956642008, -11.038685125034842], [132.50282065228322, -11.058755125741929], [132.54824464069463, -11.041722126233307], [132.56461767092352, -10.979392125976243], [132.59487564984812, -10.970153136326724], [132.5796016398584, -11.012049126438502], [132.61388864679537, -11.12883312782682], [132.58488264773322, -11.145516137548645]]], [[[132.4487466566767, -11.623525129384191], [132.45115762666106, -11.617203129367743], [132.45773365633306, -11.620564129482364], [132.46328763609165, -11.620832119559434], [132.46398964604728, -11.621862129576892], [132.4487466566767, -11.623525129384191]]], [[[132.45845577457334, -11.022251724858494], [132.45741578457478, -11.025181734867237], [132.4584357744902, -11.028351724905518], [132.45684579460854, -11.02439172485346], [132.45845577457334, -11.022251724858494]]], [[[132.3397628452058, -12.081448731476689], [132.40450234235053, -12.07784920230136], [132.41391189113583, -12.135349132870312], [132.3820022825759, -12.135288952445945], [132.3397628452058, -12.081448731476689]]], [[[132.3602323330809, -12.170478802430475], [132.3458522835463, -12.184228632348127], [132.35407244356622, -12.155218782232119], [132.3602323330809, -12.170478802430475]]], [[[132.33744864254106, -11.541152117277544], [132.33700666286404, -11.518321127095433], [132.3353276629671, -11.515921137055141], [132.33612164294834, -11.514810117056843], [132.3401496426582, -11.523775127178316], [132.33744864254106, -11.541152117277544]]], [[[132.31424066274474, -11.600236127434126], [132.30441366364707, -11.563662127025522], [132.32492165253393, -11.581748127429037], [132.31424066274474, -11.600236127434126]]], [[[132.29022757027982, -11.102650873281847], [132.28873757031232, -11.104790863279465], [132.2882875603673, -11.101970853251933], [132.29022757027982, -11.102650873281847]]], [[[132.19100827412268, -11.116770442150925], [132.18859825421356, -11.11732043212558], [132.19026827417122, -11.115300452130482], [132.19100827412268, -11.116770442150925]]], [[[132.1679566592091, -11.583348125468078], [132.1753406488631, -11.585795135577374], [132.17257963895463, -11.587885115559633], [132.1679566592091, -11.583348125468078]]], [[[132.15649665022048, -11.541651115006871], [132.1555206702763, -11.540506114986167], [132.15661867021998, -11.54127912500549], [132.15649665022048, -11.541651115006871]]], [[[132.15481866991067, -11.572095125221047], [132.1526216600839, -11.5657341251453], [132.15568865000571, -11.561546135150355], [132.15481866991067, -11.572095125221047]]], [[[132.11404766100395, -11.624321125130491], [132.11409266159615, -11.576193114760427], [132.12724664118537, -11.564076134825273], [132.14976764966443, -11.60901413544405], [132.11404766100395, -11.624321125130491]]], [[[131.95331166965994, -11.472461112090206], [131.9593996892139, -11.488712122283966], [131.94876467983502, -11.473916122050104], [131.95331166965994, -11.472461112090206]]], [[[130.66922916431417, -11.414558680732032], [130.70164372278907, -11.441108121120172], [130.71093673210805, -11.48868510153439], [130.72231973174073, -11.469743101458661], [130.7519057204363, -11.477919101698408], [130.81036170763616, -11.527370102435373], [130.7333367015381, -11.426883121200397], [130.69665373308675, -11.426610110981429], [130.70481772299348, -11.384960120714345], [130.84908772713854, -11.354747101376658], [130.89934972534877, -11.309304111363625], [131.0325467193723, -11.367234102734653], [131.05196771875046, -11.341961112684928], [131.04047670940562, -11.318614112423191], [131.09191469737615, -11.304046112694376], [131.11295570685476, -11.258887112510386], [131.14833544546306, -11.249861242714067], [131.16837478412165, -11.313439453354722], [131.1876044431464, -11.334888803670124], [131.20812471248695, -11.311119113653241], [131.20943670216212, -11.343825113912862], [131.21924772204616, -11.308487113722897], [131.1908517032749, -11.302625113450329], [131.2043096932596, -11.23653310305452], [131.27628371068985, -11.189739113285865], [131.316033708717, -11.228907113919009], [131.30330768885284, -11.273739124153144], [131.35271470701804, -11.249983124394596], [131.38248469534602, -11.29901311502871], [131.40091668494398, -11.259140104887067], [131.4371107033759, -11.266914125270409], [131.42984771333664, -11.30368810548588], [131.4626924517444, -11.327997475969653], [131.46559869107742, -11.386017126439594], [131.52297168859454, -11.39425012703553], [131.54369368715282, -11.45291012768014], [131.46144868004708, -11.514028117379317], [131.46865169883904, -11.609403128173602], [131.42661370059645, -11.614323127828134], [131.38027370286315, -11.583696117181294], [131.2813066957472, -11.740056117520291], [131.25643467688354, -11.73368310726416], [131.08233468366083, -11.835742116660198], [130.95281870860026, -11.940328106510483], [130.86245672319785, -11.85487111524965], [130.6871647212749, -11.796534113719606], [130.68277074167943, -11.761133113426915], [130.59755178564723, -11.717212392616611], [130.586655736273, -11.689813112351137], [130.57183972685232, -11.701340112358714], [130.55726771763142, -11.674280102077743], [130.4926340705293, -11.654914731601377], [130.4767467213889, -11.620623111264782], [130.49105972109547, -11.557301110858479], [130.4324197338646, -11.503459110170128], [130.41026372546273, -11.364550099021582], [130.38406475664655, -11.345995098763321], [130.4110117156687, -11.314133108645356], [130.3637857179084, -11.254030107981436], [130.37306274790592, -11.169523097385817], [130.40177973674454, -11.165647107484801], [130.5161446014606, -11.280048998893935], [130.55436673994708, -11.266132098984489], [130.59593070809444, -11.289453109380435], [130.6039117275866, -11.321097119662495], [130.554839739416, -11.361816119709019], [130.56927472861494, -11.398028110057941], [130.63769473586956, -11.374927110254703], [130.65693571529064, -11.335603120065587], [130.66922916431417, -11.414558680732032]]], [[[131.35727318911307, -12.109045280979668], [131.34428345973862, -12.104685220832948], [131.35114333950688, -12.096075260827353], [131.35727318911307, -12.109045280979668]]], [[[131.07288695268656, -12.014956167947792], [131.1271468303706, -12.000947168256378], [131.13548973988748, -12.014657128425283], [131.07288695268656, -12.014956167947792]]], [[[131.0617748927632, -12.069425158277095], [131.0983547512489, -12.052735108427301], [131.12708451987928, -12.06260505872349], [131.0617748927632, -12.069425158277095]]], [[[131.04976968309882, -12.096083898389455], [131.07129665198474, -12.114448888689658], [131.06514468217696, -12.12552265872728], [131.00206224508884, -12.11787343820454], [131.04976968309882, -12.096083898389455]]], [[[131.00353527549967, -12.053955257731403], [131.02335510474325, -12.036185227741019], [131.0641049429319, -12.034065188026643], [131.04326501370295, -12.05545519803348], [131.00353527549967, -12.053955257731403]]], [[[131.0202752340699, -12.14373531853272], [131.01615529420891, -12.150075338550607], [131.0147753042758, -12.14950533853623], [131.0202752340699, -12.14373531853272]]], [[[131.01144533441493, -12.151095358524016], [131.01225534437225, -12.151885358535887], [131.01041534445227, -12.152345358525979], [131.01144533441493, -12.151095358524016]]], [[[130.99594550509022, -12.154855428440213], [130.99975548487183, -12.160945418513784], [130.99607551504477, -12.160165428481326], [130.99594550509022, -12.154855428440213]]], [[[130.95324718423697, -12.537917201030252], [130.95151719432917, -12.53645718100702], [130.95427717419832, -12.536567181027339], [130.95324718423697, -12.537917201030252]]], [[[130.945037894011, -12.621988081606764], [130.95367788355932, -12.627618121710206], [130.95242797355985, -12.635648191761952], [130.945037894011, -12.621988081606764]]], [[[130.9461678240068, -12.615208001563575], [130.944337864078, -12.617358021566917], [130.943867814125, -12.613968001538034], [130.9461678240068, -12.615208001563575]]], [[[130.94435713474033, -12.526307120880007], [130.94527686469874, -12.52607713088473], [130.94482710471496, -12.526757110886702], [130.94435713474033, -12.526307120880007]]], [[[130.94160663485334, -12.528567150877754], [130.9434471547717, -12.52788713088554], [130.94241712481025, -12.529247160888575], [130.94160663485334, -12.528567150877754]]], [[[130.87748778767872, -12.556258080645824], [130.87782745765557, -12.557277640655796], [130.8775974676657, -12.557387640655078], [130.87748778767872, -12.556258080645824]]], [[[130.87007780779282, -12.59016805085163], [130.87019778777227, -12.592308070868564], [130.8690477778212, -12.593108090866878], [130.87007780779282, -12.59016805085163]]], [[[130.86418205838103, -12.545541020475776], [130.86833168809426, -12.558671410602507], [130.861865068375, -12.562228400586099], [130.86418205838103, -12.545541020475776]]], [[[130.6564017153979, -11.320961109951922], [130.66555672498845, -11.325683100039493], [130.6622147051156, -11.32780811003657], [130.6564017153979, -11.320961109951922]]], [[[130.64720273292178, -11.814487113625411], [130.64680572289865, -11.821441113675595], [130.64595173300665, -11.809350123579597], [130.64720273292178, -11.814487113625411]]], [[[130.46896572149308, -11.666717121573727], [130.64077661351794, -11.7603492431809], [130.60575972467115, -11.826991113488793], [130.56833072640367, -11.811199123167729], [130.49949873933096, -11.829616112950571], [130.3134797377733, -11.77070412164955], [130.13129175555613, -11.825031111361708], [130.04950576916033, -11.823989111088512], [130.02052875058044, -11.776352110645426], [130.03345376007763, -11.755744110529674], [130.07355272829471, -11.764846110721173], [130.07632873848667, -11.668890110011995], [130.1511587351077, -11.706910110545975], [130.20232002310254, -11.64942052029951], [130.2104347324846, -11.718610120848547], [130.23417576136399, -11.740507101103113], [130.2075997427077, -11.692727120643882], [130.22048074223696, -11.670052110522368], [130.30324273840608, -11.727570111282947], [130.29389873895053, -11.69515311100096], [130.24630949108376, -11.678599780685907], [130.25867474055917, -11.675780120713378], [130.26416072037898, -11.661733110629756], [130.19092172362954, -11.640336120189383], [130.20114475339403, -11.586260119821516], [130.17499174461994, -11.55841911951749], [130.19528574390628, -11.517223109282103], [130.21804173295615, -11.512019119327622], [130.2253127526795, -11.50350811929124], [130.23108373234675, -11.525663109479506], [130.2545147213171, -11.533049099625735], [130.2639447507962, -11.562010109880386], [130.2613247510526, -11.526573099603947], [130.23120575245474, -11.496855109263754], [130.2037847235674, -11.511049109267105], [130.18602375442282, -11.484602119003629], [130.1482727560376, -11.481661118847883], [130.1857177446624, -11.42367909854545], [130.2263517329935, -11.411685108605896], [130.2445247524068, -11.36647310833592], [130.24149174242618, -11.393735108528979], [130.2493587320658, -11.401080108614607], [130.25669673176756, -11.398382108622997], [130.25218475216892, -11.345599108208834], [130.33863973867065, -11.317995108354193], [130.4006207555892, -11.424078109425677], [130.37622272623716, -11.507581119944152], [130.46463175213262, -11.576096110870548], [130.46896572149308, -11.666717121573727]]], [[[130.6223613789752, -12.684850470033819], [130.62892184865956, -12.685180130073416], [130.6252414088163, -12.688460530077194], [130.6223613789752, -12.684850470033819]]], [[[130.61360138484076, -11.736371972848845], [130.61131140494703, -11.735222012827577], [130.6140613148265, -11.735351972843688], [130.61360138484076, -11.736371972848845]]], [[[130.60073212992677, -12.699220940020595], [130.60177219985613, -12.702830990053465], [130.5997021799735, -12.699670970018254], [130.60073212992677, -12.699220940020595]]], [[[130.57072472874265, -11.363250109803168], [130.56787071886717, -11.362343109781266], [130.57028171877238, -11.361191109785288], [130.57072472874265, -11.363250109803168]]], [[[130.5173105446831, -12.557579928510393], [130.502961815082, -12.610240708831462], [130.54225267282646, -12.681181199568034], [130.539743632789, -12.709881749769966], [130.4866527357865, -12.623641238848997], [130.48476189610258, -12.58035074851495], [130.5173105446831, -12.557579928510393]]], [[[130.4575547170985, -12.637741108809537], [130.45692870720677, -12.622373128691319], [130.4620397268854, -12.637639118830904], [130.4575547170985, -12.637741108809537]]], [[[130.43718173869323, -12.513011117775635], [130.43420271878045, -12.523641117840945], [130.42972273899542, -12.522861127813586], [130.43718173869323, -12.513011117775635]]], [[[130.40514466988975, -12.577142268103655], [130.43437367849202, -12.57983174826277], [130.41677461926565, -12.592052268270171], [130.40514466988975, -12.577142268103655]]], [[[130.42124170934588, -12.5328321278478], [130.42191272929202, -12.5373311178847], [130.41857374944288, -12.53869110787902], [130.42124170934588, -12.5328321278478]]], [[[130.39411550031357, -12.59761279820544], [130.40952469964867, -12.584032298175844], [130.4144848693426, -12.598502428307631], [130.39411550031357, -12.59761279820544]]], [[[130.40957774521084, -11.42415310946715], [130.40661773532523, -11.42639110947044], [130.40846372526778, -11.422043109446161], [130.40957774521084, -11.42415310946715]]], [[[130.3916956204132, -12.600772858217866], [130.40183560986225, -12.615122828372533], [130.3850257907217, -12.602472948199772], [130.3916956204132, -12.600772858217866]]], [[[130.36892667129672, -12.64271333842729], [130.370656331324, -12.619443218261026], [130.39321588023927, -12.62191296838317], [130.38885621035283, -12.641473168509373], [130.36892667129672, -12.64271333842729]]], [[[130.3574467217542, -12.661953118519373], [130.37022672111522, -12.668053118622785], [130.36908672115055, -12.672113108647979], [130.3574467217542, -12.661953118519373]]], [[[130.16842002491632, -11.554341349463463], [130.16842002491262, -11.555351349471032], [130.1680699849284, -11.555131349468143], [130.16842002491632, -11.554341349463463]]], [[[130.10777465166933, -13.224045051716573], [130.10194469207042, -13.19399530147305], [130.10961458159107, -13.22008507169353], [130.10777465166933, -13.224045051716573]]], [[[130.0198654664551, -13.111206450590299], [130.0227056062059, -13.144666290847583], [130.0728350635797, -13.179925641270133], [130.02044581620592, -13.17980617110155], [130.0198654664551, -13.111206450590299]]], [[[129.6713295009192, -14.78357388208536], [129.70141939917946, -14.789153832180764], [129.7320694373812, -14.806383772366617], [129.6981295093284, -14.809493712323588], [129.6713295009192, -14.78357388208536]]], [[[129.57278724605237, -15.156665294659357], [129.57249724606075, -15.162765294703467], [129.5700172962016, -15.166925314730458], [129.57278724605237, -15.156665294659357]]], [[[129.23381763611226, -15.114213934138942], [129.23708759591923, -15.113673774134675], [129.2349476760459, -15.117164464160242], [129.23381763611226, -15.114213934138942]]], [[[129.23387771610942, -15.12020506418244], [129.23661769594818, -15.125426044220053], [129.23614772597597, -15.12576609422257], [129.23387771610942, -15.12020506418244]]], [[[129.23414777609435, -15.127666464236581], [129.23226781620556, -15.12900671424653], [129.23146780625265, -15.127646464236744], [129.23414777609435, -15.127666464236581]]], [[[129.2308578862891, -15.130687014258891], [129.2309478562841, -15.133067464276165], [129.23025782632482, -15.132607374272915], [129.2308578862891, -15.130687014258891]]], [[[129.21100823746588, -15.1477997543864], [129.2188081470042, -15.147199844380554], [129.21282827735908, -15.152109834417312], [129.21100823746588, -15.1477997543864]]], [[[129.20150838802985, -15.1545995044379], [129.19949847814965, -15.157629384460392], [129.19856845820445, -15.15660938445323], [129.20150838802985, -15.1545995044379]]], [[[129.18629887894159, -15.188588334688715], [129.18466889903826, -15.18824830468676], [129.18397882907814, -15.18518838466479], [129.18629887894159, -15.188588334688715]]], [[[129.1633790302998, -15.182998104656429], [129.15894910056383, -15.185587974677063], [129.162679070341, -15.182318114651789], [129.1633790302998, -15.182998104656429]]]]}, "bbox": [129.00057905637536, -25.998591879552773, 137.99906130486545, -10.907552142561716]}], "bbox": [129.00057905637536, -25.998591879552773, 137.99906130486545, -10.907552142561716]}